sequenceID,collectionDate,postCode,longitude,latitude
hCoV-19/Belgium/DBWC-0325340/2020|EPI_ISL_462194|2020-03-25,2020.22950819672,2600,654070.289439216,708472.766905742
hCoV-19/Belgium/UGent-48/2020|EPI_ISL_434364|2020-03-30,2020.24316939891,NA,NA,NA
hCoV-19/Belgium/GHB-03021/2020|EPI_ISL_407976|2020-02-03|Europe,2020.09016393443,8560,566306.80953035,670606.773329757
hCoV-19/Belgium/KWA-0323410/2020|EPI_ISL_462264|2020-03-23,2020.22404371585,9100,632329.352109101,708451.030398367
hCoV-19/Belgium/JLJ-0320101/2020|EPI_ISL_420357|2020-03-20|Europe,2020.21584699454,1040,652725.731453406,669086.593657165
hCoV-19/Belgium/MSE-0324121/2020|EPI_ISL_420378|2020-03-24|Europe,2020.22677595628,7340,612156.090177799,622382.610918291
hCoV-19/Belgium/BJ-0324192/2020|EPI_ISL_420412|2020-03-24|Europe,2020.22677595628,3582,715170.260911246,694378.032006643
hCoV-19/Belgium/DGL-0326336/2020|EPI_ISL_462190|2020-03-26,2020.23224043716,8460,554390.8441224,706762.474483647
hCoV-19/Belgium/DAA-0327369/2020|EPI_ISL_462223|2020-03-27,2020.2349726776,8540,578554.594130932,668971.664755308
hCoV-19/Belgium/ITM_C193/2020|EPI_ISL_450731|2020-03-31|Europe,2020.24590163934,NA,NA,NA
hCoV-19/Belgium/ULG-6688/2020|EPI_ISL_418625|2020-03-14|Europe,2020.19945355191,4633,748397.527960588,648087.096562938
hCoV-19/Belgium/ULG-10028/2020|EPI_ISL_421202|2020-03-30|Europe,2020.24316939891,4802,756171.996666389,641408.05015463
hCoV-19/Belgium/ULG-10032/2020|EPI_ISL_421206|2020-03-31|Europe,2020.24590163934,4100,728120.996007513,641783.590907886
hCoV-19/Belgium/ULG-10052/2020|EPI_ISL_424657|2020-04-05|Europe,2020.25956284153,4900,755208.645645615,630564.416883896
hCoV-19/Belgium/ULG-0184/2020|EPI_ISL_447127|2020-03-23|Europe,2020.22404371585,4750,783592.583915909,633594.635219964
hCoV-19/Belgium/rega-0423302/2020|EPI_ISL_462156|2020-04-23,2020.3087431694,4700,776063.346164795,642004.279437344
hCoV-19/Belgium/ULG-10145/2020|EPI_ISL_447137|2020-04-17|Europe,2020.29234972678,4700,776959.006924124,643955.040848366
hCoV-19/Belgium/rega-0423298/2020|EPI_ISL_462152|2020-04-23,2020.3087431694,4700,783006.262035757,645727.449992765
hCoV-19/Belgium/ULG-10169/2020|EPI_ISL_447139|2020-04-11|Europe,2020.27595628415,NA,NA,NA
hCoV-19/Belgium/ULG-10088/2020|EPI_ISL_424646|2020-04-04|Europe,2020.25683060109,4720,765314.036763368,657012.79581117
hCoV-19/Belgium/ULG-10089/2020|EPI_ISL_424643|2020-04-04|Europe,2020.25683060109,4720,766007.327830952,659721.667105112
hCoV-19/Belgium/ULG-10096/2020|EPI_ISL_427389|2020-04-05,2020.25956284153,4721,767912.368129012,659898.132876325
hCoV-19/Belgium/ULG-10095/2020|EPI_ISL_424651|2020-04-05|Europe,2020.25956284153,4760,788523.748538198,621391.079976291
hCoV-19/Belgium/ULG-10146/2020|EPI_ISL_447138|2020-04-17|Europe,2020.29234972678,4700,778648.891159856,644602.295578747
hCoV-19/Belgium/rega-0423303/2020|EPI_ISL_462157|2020-04-23,2020.3087431694,4837,762960.499727477,646907.942200398
hCoV-19/Belgium/rega-0423299/2020|EPI_ISL_462153|2020-04-23,2020.3087431694,4760,790410.616604529,616567.188939974
hCoV-19/Belgium/rega-0423297/2020|EPI_ISL_462151|2020-04-23,2020.3087431694,4720,765324.685370526,656864.291915067
hCoV-19/Belgium/rega-0423300/2020|EPI_ISL_462154|2020-04-23,2020.3087431694,4720,765994.897038398,658631.237906772
hCoV-19/Belgium/rega-0423301/2020|EPI_ISL_462155|2020-04-23,2020.3087431694,4720,765757.544950512,658531.374114447
hCoV-19/Belgium/HLE-0327390/2020|EPI_ISL_462244|2020-03-27,2020.2349726776,3971,710120.544667402,699847.698014453
hCoV-19/Belgium/Rega-0330255/2020|EPI_ISL_458225|2020-03-30|Europe,2020.24316939891,3500,718766.450955507,676890.377503904
hCoV-19/Belgium/ULG-10165/2020|EPI_ISL_447159|2020-04-19|Europe,2020.29781420765,4800,753805.502723976,645511.877420369
hCoV-19/Belgium/CS-031052/2020|EPI_ISL_418800|2020-03-10|Europe,2020.18852459016,2275,682988.559235956,720399.179734595
hCoV-19/Belgium/ULG-10166/2020|EPI_ISL_447160|2020-04-19|Europe,2020.29781420765,4800,753843.619672729,646783.717876115
hCoV-19/Belgium/ULG-10187/2020|EPI_ISL_455975|2020-5-11|Europe,2020.35792349727,4860,752199.549317014,640398.527116756
hCoV-19/Belgium/ULG-10132/2020|EPI_ISL_427377|2020-04-07|Europe,2020.2650273224,4040,738179.809833814,654053.369735214
hCoV-19/Belgium/CG-030158/2020|EPI_ISL_418987|2020-03-01|Europe,2020.16393442623,4837,770787.908618678,638342.365206904
hCoV-19/Belgium/MJP-0306100/2020|EPI_ISL_420356|2020-03-06|Europe,2020.17759562842,4841,760313.572091665,653499.721368531
hCoV-19/Belgium/SJ-030583/2020|EPI_ISL_420339|2020-03-05|Europe,2020.17486338798,4830,760083.212471651,644328.116767948
hCoV-19/Belgium/AC-030982/2020|EPI_ISL_420338|2020-03-09|Europe,2020.18579234973,4671,743982.01764556,650777.196483673
hCoV-19/Belgium/ULG-6743/2020|EPI_ISL_418627|2020-03-14|Europe,2020.19945355191,4837,771679.734280998,643303.267765298
hCoV-19/Belgium/ULG-6842/2020|EPI_ISL_447121|2020-03-14|Europe,2020.19945355191,3793,754693.907387243,661283.761418774
hCoV-19/Belgium/ULG-7626/2020|EPI_ISL_418633|2020-03-17|Europe,2020.20765027322,4770,781623.756248252,611789.585609064
hCoV-19/Belgium/ULG-10120/2020|EPI_ISL_427368|2020-04-07|Europe,2020.2650273224,4430,732988.073192809,650002.13291104
hCoV-19/Belgium/UGent-10/2020|EPI_ISL_425054|2020-03-25|Europe,2020.22950819672,NA,NA,NA
hCoV-19/Belgium/GGO-0327349/2020|EPI_ISL_462203|2020-03-27,2020.2349726776,8000,567997.858946035,714518.763266168
hCoV-19/Belgium/UGent-3/2020|EPI_ISL_425051|2020-03-24|Europe,2020.22677595628,NA,NA,NA
hCoV-19/Belgium/UGent-11/2020|EPI_ISL_419259|2020-03-24|Europe,2020.22677595628,NA,NA,NA
hCoV-19/Belgium/UGent-17/2020|EPI_ISL_425057|2020-03-26|Europe,2020.23224043716,NA,NA,NA
hCoV-19/Belgium/UGent-19/2020|EPI_ISL_425059|2020-03-24|Europe,2020.22677595628,NA,NA,NA
hCoV-19/Belgium/UGent-61/2020|EPI_ISL_451172|2020-04-08,2020.26775956284,NA,NA,NA
hCoV-19/Belgium/UGent-15/2020|EPI_ISL_425056|2020-03-25|Europe,2020.22950819672,NA,NA,NA
hCoV-19/Belgium/UGent-1/2020|EPI_ISL_425048|2020-03-24|Europe,2020.22677595628,NA,NA,NA
hCoV-19/Belgium/UGent-20/2020|EPI_ISL_425060|2020-03-25|Europe,2020.22950819672,NA,NA,NA
hCoV-19/Belgium/UGent-18/2020|EPI_ISL_425058|2020-03-23|Europe,2020.22404371585,NA,NA,NA
hCoV-19/Belgium/UGent-21/2020|EPI_ISL_425061|2020-03-25|Europe,2020.22950819672,NA,NA,NA
hCoV-19/Belgium/UGent-31/2020|EPI_ISL_434349|2020-03-26|Europe,2020.23224043716,NA,NA,NA
hCoV-19/Belgium/Rega-0329240/2020|EPI_ISL_458210|2020-03-29|Europe,2020.24043715847,7011,617976.04143214,630410.597107944
hCoV-19/Belgium/DV-0324117/2020|EPI_ISL_420374|2020-03-24|Europe,2020.22677595628,1652,647436.51559009,658856.207692313
hCoV-19/Belgium/ITM_C285/2020|EPI_ISL_434379|2020-04-03|Europe,2020.25409836066,NA,NA,NA
hCoV-19/Belgium/ITM_C585/2020|EPI_ISL_434381|2020-04-16|Europe,2020.28961748634,NA,NA,NA
hCoV-19/Belgium/ULG-7019/2020|EPI_ISL_417025|2020-03-15|Europe,2020.20218579235,4053,737707.589729516,644107.601292089
hCoV-19/Belgium/ULG-10080/2020|EPI_ISL_424641|2020-04-03|Europe,2020.25409836066,4130,733214.531552291,635868.408763382
hCoV-19/Belgium/ULG-6638/2020|EPI_ISL_417017|2020-03-14|Europe,2020.19945355191,4000,732833.298234528,645496.130779693
hCoV-19/Belgium/SR-0319112/2020|EPI_ISL_420369|2020-03-19|Europe,2020.2131147541,7100,637859.19502108,632252.022263812
hCoV-19/Belgium/ULG-3662/2020|EPI_ISL_417008|2020-03-07|Europe,2020.18032786885,4680,736895.282383552,657591.771917594
hCoV-19/Belgium/ULG-3683/2020|EPI_ISL_417011|2020-03-07|Europe,2020.18032786885,4030,738014.360673969,646101.216989852
hCoV-19/Belgium/ULG-3665/2020|EPI_ISL_417009|2020-03-07|Europe,2020.18032786885,4680,737610.368292887,655987.805244944
hCoV-19/Belgium/ULG-10022/2020|EPI_ISL_421197|2020-03-31|Europe,2020.24590163934,4032,738423.533533618,645175.440375378
hCoV-19/Belgium/ULG-0183/2020|EPI_ISL_447141|2020-03-23|Europe,2020.22404371585,4700,771291.016031757,648722.063035101
hCoV-19/Belgium/DGL-0409415/2020|EPI_ISL_462269|2020-04-09,2020.27049180328,6200,661893.90824983,619509.321845003
hCoV-19/Belgium/MNL-0324130/2020|EPI_ISL_420387|2020-03-24|Europe,2020.22677595628,1082,645109.954755827,673235.654067548
hCoV-19/Belgium/IL-0326322/2020|EPI_ISL_462176|2020-03-26,2020.23224043716,6211,658290.557716334,631662.248602259
hCoV-19/Belgium/DME-0324135/2020|EPI_ISL_420392|2020-03-24|Europe,2020.22677595628,3350,698047.89762907,670101.109616007
hCoV-19/Belgium/BS-0331361/2020|EPI_ISL_462215|2020-03-31,2020.24590163934,6230,651491.117361354,635215.846043767
hCoV-19/Belgium/Rega-0330251/2020|EPI_ISL_458221|2020-03-30|Europe,2020.24316939891,2390,672102.46313337,721280.27614978
hCoV-19/Belgium/DC-0322355/2020|EPI_ISL_462209|2020-03-22,2020.22131147541,2400,706114.552496834,710692.072436232
hCoV-19/Belgium/JJC-0325165/2020|EPI_ISL_420422|2020-03-25|Europe,2020.22950819672,3390,690072.960299478,682460.707861464
hCoV-19/Belgium/Rega-0329234/2020|EPI_ISL_458204|2020-03-29|Europe,2020.24043715847,3583,708299.528446153,694438.711141177
hCoV-19/Belgium/Rega-0320262/2020|EPI_ISL_458232|2020-03-20|Europe,2020.21584699454,3210,685412.62941692,674063.709320621
hCoV-19/Belgium/CGR-0330328/2020|EPI_ISL_462182|2020-03-30,2020.24316939891,2430,698609.845446575,698273.354839221
hCoV-19/Belgium/VSPE-0328388/2020|EPI_ISL_462242|2020-03-28,2020.23770491803,3900,721415.178959928,714257.812322577
hCoV-19/Belgium/DMM-0325180/2020|EPI_ISL_420437|2020-03-25|Europe,2020.22950819672,1850,652969.524646665,682760.32949797
hCoV-19/Belgium/SRL-0330331/2020|EPI_ISL_462185|2020-03-30,2020.24316939891,2980,674852.613167297,718395.810602827
hCoV-19/Belgium/ITM_C026/2020|EPI_ISL_450724|2020-03-25|Europe,2020.22950819672,NA,NA,NA
hCoV-19/Belgium/FCA-0327348/2020|EPI_ISL_462202|2020-03-27,2020.2349726776,8310,572738.985399065,712350.406528173
hCoV-19/Belgium/DVG-0325146/2020|EPI_ISL_420403|2020-03-25|Europe,2020.22950819672,9500,612590.305259195,661316.715486745
hCoV-19/Belgium/VBWF-0330329/2020|EPI_ISL_462183|2020-03-30,2020.24316939891,2390,674629.398216612,720307.624816851
hCoV-19/Belgium/HAA-030953/2020|EPI_ISL_418982|2020-03-09|Europe,2020.18579234973,2260,686459.007257162,703620.783833684
hCoV-19/Belgium/VRJM-0323114/2020|EPI_ISL_420371|2020-03-23|Europe,2020.22404371585,2620,648572.717890105,705046.906303553
hCoV-19/Belgium/VHV-0324118/2020|EPI_ISL_420375|2020-03-24|Europe,2020.22677595628,3080,661043.249116965,665975.562516932
hCoV-19/Belgium/UGent-9/2020|EPI_ISL_425053|2020-03-25|Europe,2020.22950819672,NA,NA,NA
hCoV-19/Belgium/BJ-0325181/2020|EPI_ISL_420438|2020-03-25|Europe,2020.22950819672,2230,686128.305070733,692747.617948766
hCoV-19/Belgium/CL-0330332/2020|EPI_ISL_462186|2020-03-30,2020.24316939891,2110,662439.682957455,712666.037269849
hCoV-19/Belgium/Rega-0329232/2020|EPI_ISL_458202|2020-03-29|Europe,2020.24043715847,3012,673541.779546036,676909.563494759
hCoV-19/Belgium/VPE-030650/2020|EPI_ISL_418805|2020-03-06|Europe,2020.17759562842,9800,585702.366292991,686783.894751664
hCoV-19/Belgium/UGent-24/2020|EPI_ISL_425063|2020-03-24|Europe,2020.22677595628,NA,NA,NA
hCoV-19/Belgium/TMG-0326391/2020|EPI_ISL_462245|2020-03-26,2020.23224043716,3990,725806.565902782,703277.645397533
hCoV-19/Belgium/UGent-2/2020|EPI_ISL_425050|2020-03-24|Europe,2020.22677595628,NA,NA,NA
hCoV-19/Belgium/ITM_C169/2020|EPI_ISL_450729|2020-03-29|Europe,2020.24043715847,NA,NA,NA
hCoV-19/Belgium/UGent-47/2020|EPI_ISL_434363|2020-03-30|Europe,2020.24316939891,NA,NA,NA
hCoV-19/Belgium/DWW-0330306/2020|EPI_ISL_462160|2020-03-30,2020.24316939891,2260,687346.205780285,701933.777909167
hCoV-19/Belgium/RS-030257/2020|EPI_ISL_418986|2020-03-02|Europe,2020.16666666667,3320,683078.246636182,661748.19122577
hCoV-19/Belgium/UGent-70/2020|EPI_ISL_451181|2020-04-14|Europe,2020.28415300546,NA,NA,NA
hCoV-19/Belgium/VNP-0320107/2020|EPI_ISL_420363|2020-03-20|Europe,2020.21584699454,1170,655596.09858499,663675.674956061
hCoV-19/Belgium/UGent-37/2020|EPI_ISL_434355|2020-03-27|Europe,2020.2349726776,NA,NA,NA
hCoV-19/Belgium/Rega-0328206/2020|EPI_ISL_458176|2020-03-28|Europe,2020.23770491803,7010,NA,NA
hCoV-19/Belgium/VMC-0325337/2020|EPI_ISL_462191|2020-03-25,2020.22950819672,8400,551901.181437095,711465.568307676
hCoV-19/Belgium/Rega-0329231/2020|EPI_ISL_458201|2020-03-29|Europe,2020.24043715847,7350,602398.750274499,625338.074727439
hCoV-19/Belgium/UGent-69/2020|EPI_ISL_451180|2020-04-14|Europe,2020.28415300546,NA,NA,NA
hCoV-19/Belgium/PJM-0325166/2020|EPI_ISL_420423|2020-03-25|Europe,2020.22950819672,7060,626543.078334576,641523.162113341
hCoV-19/Belgium/ULG-8595/2020|EPI_ISL_418634|2020-03-19|Europe,2020.2131147541,6200,658657.465753118,620300.527778712
hCoV-19/Belgium/ULG-7921/2020|EPI_ISL_447136|2020-03-17|Europe,2020.20765027322,6200,662537.500787675,618885.956624123
hCoV-19/Belgium/20A49/2020|EPI_ISL_452151|2020-04-14|Europe,2020.28415300546,NA,NA,NA
hCoV-19/Belgium/ULG-0536/2020|EPI_ISL_447133|2020-03-24|Europe,2020.22677595628,4830,761228.466248589,641870.818957743
hCoV-19/Belgium/LPDC-0323115/2020|EPI_ISL_420372|2020-03-23|Europe,2020.22404371585,1190,646653.127556618,666511.884290741
hCoV-19/Belgium/ULG-10077/2020|EPI_ISL_424642|2020-04-04|Europe,2020.25683060109,4460,722068.605987602,645475.805167229
hCoV-19/Belgium/ULG-0189/2020|EPI_ISL_447129|2020-03-23|Europe,2020.22404371585,4852,759267.291260263,658082.876653976
hCoV-19/Belgium/ULG-10100/2020|EPI_ISL_427351|2020-04-07|Europe,2020.2650273224,4602,742463.772057467,654414.060446384
hCoV-19/Belgium/ULG-10081/2020|EPI_ISL_424640|2020-04-03|Europe,2020.25409836066,4050,738952.547159649,642194.815864786
hCoV-19/Belgium/ULG-9716/2020|EPI_ISL_418657|2020-03-22|Europe,2020.22131147541,4053,737004.216225384,642810.179117121
hCoV-19/Belgium/ULG-10040/2020|EPI_ISL_421208|2020-03-30|Europe,2020.24316939891,4610,742679.81270325,648231.883716538
hCoV-19/Belgium/ULG-10008/2020|EPI_ISL_421187|2020-03-30|Europe,2020.24316939891,4470,721663.707075135,643827.755001683
hCoV-19/Belgium/ULG-9558/2020|EPI_ISL_418645|2020-03-21|Europe,2020.21857923497,4020,737138.109501098,647796.76862743
hCoV-19/Belgium/ULG-10060/2020|EPI_ISL_424663|2020-04-05|Europe,2020.25956284153,4000,733161.461185178,652301.174790691
hCoV-19/Belgium/FA-0328311/2020|EPI_ISL_462165|2020-03-28,2020.23770491803,7300,608590.815232051,624179.187155195
hCoV-19/Belgium/ULG-10141/2020|EPI_ISL_427386|2020-04-08|Europe,2020.26775956284,4140,739383.812451488,633748.164297712
hCoV-19/Belgium/UGent-57/2020|EPI_ISL_451168|2020-04-03|Europe,2020.25409836066,NA,NA,NA
hCoV-19/Belgium/ULG-10112/2020|EPI_ISL_427362|2020-04-06|Europe,2020.26229508197,4100,733057.071505698,640206.875756575
hCoV-19/Belgium/ULG-9647/2020|EPI_ISL_418653|2020-03-22|Europe,2020.22131147541,4000,733824.488783644,653238.419140742
hCoV-19/Belgium/FAE-030948/2020|EPI_ISL_420445|2020-03-09|Europe,2020.18579234973,4020,740915.110947993,652014.872117438
hCoV-19/Belgium/ZF-0325152/2020|EPI_ISL_420409|2020-03-25|Europe,2020.22950819672,7522,572947.73524852,643208.331351776
hCoV-19/Belgium/AA-0408412/2020|EPI_ISL_462266|2020-04-08,2020.26775956284,7971,600726.7701768,636604.286342663
hCoV-19/Belgium/PS-0408413/2020|EPI_ISL_462267|2020-04-08,2020.26775956284,7601,595883.421515817,636159.356238246
hCoV-19/Belgium/ULG-9739/2020|EPI_ISL_418663|2020-03-22|Europe,2020.22131147541,4000,735610.123770537,650669.474068418
hCoV-19/Belgium/Rega-0320258/2020|EPI_ISL_458228|2020-03-20|Europe,2020.21584699454,3080,662715.419970953,670388.820260726
hCoV-19/Belgium/LPJ-0401364/2020|EPI_ISL_462218|2020-04-01,2020.24863387978,3401,701699.604003833,656187.345582445
hCoV-19/Belgium/ULG-6839/2020|EPI_ISL_447120|2020-03-14|Europe,2020.19945355191,4700,783979.285214997,647526.239964734
hCoV-19/Belgium/ULG-10119/2020|EPI_ISL_427367|2020-04-07|Europe,2020.2650273224,4430,732657.353275141,650502.383354557
hCoV-19/Belgium/ULG-10159/2020|EPI_ISL_447154|2020-04-18|Europe,2020.29508196721,4020,740717.125341139,647763.693476816
hCoV-19/Belgium/SN-0331360/2020|EPI_ISL_462214|2020-03-31,2020.24590163934,1330,660943.764403332,656950.899064429
hCoV-19/Belgium/ULG-10128/2020|EPI_ISL_427374|2020-04-07|Europe,2020.2650273224,4030,738534.052182053,646743.38082659
hCoV-19/Belgium/EC-0325128/2020|EPI_ISL_420385|2020-03-25|Europe,2020.22950819672,1470,660472.799401023,645213.27837536
hCoV-19/Belgium/UGent-66/2020|EPI_ISL_451177|2020-04-08|Europe,2020.26775956284,NA,NA,NA
hCoV-19/Belgium/ULG-10122/2020|EPI_ISL_427370|2020-04-07|Europe,2020.2650273224,4830,761202.136617707,646018.944880149
hCoV-19/Belgium/ULG-10143/2020|EPI_ISL_427387|2020-04-07|Europe,2020.2650273224,3790,751230.843956215,660347.033518613
hCoV-19/Belgium/DCS-0325158/2020|EPI_ISL_420415|2020-03-25|Europe,2020.22950819672,6061,659195.08116962,620882.147130081
hCoV-19/Belgium/GLA-0324179/2020|EPI_ISL_420436|2020-03-24|Europe,2020.22677595628,6040,655167.334328875,626602.093001581
hCoV-19/Belgium/NKMA-0324172/2020|EPI_ISL_420429|2020-03-24|Europe,2020.22677595628,7950,604839.961196904,638828.448737194
hCoV-19/Belgium/Rega-0327212/2020|EPI_ISL_458182|2020-03-27|Europe,2020.2349726776,7060,630017.612253304,639718.972304918
hCoV-19/Belgium/Rega-0328205/2020|EPI_ISL_458175|2020-03-28|Europe,2020.23770491803,1020,648118.698939596,676821.442910345
hCoV-19/Belgium/NA-0323141/2020|EPI_ISL_420398|2020-03-23|Europe,2020.22404371585,1410,651680.146940532,657578.942935312
hCoV-19/Belgium/CK-0324150/2020|EPI_ISL_420407|2020-03-24|Europe,2020.22677595628,7972,601025.538541939,635196.628884376
hCoV-19/Belgium/UGent-42/2020|EPI_ISL_434358|2020-04-13|Europe,2020.28142076503,NA,NA,NA
hCoV-19/Belgium/ULG-10047/2020|EPI_ISL_421214|2020-03-30|Europe,2020.24316939891,4480,723190.927667398,637258.173479425
hCoV-19/Belgium/ULG-10038/2020|EPI_ISL_427346|2020-03-30|Europe,2020.24316939891,4041,736548.859441932,654591.208326429
hCoV-19/Belgium/ULG-10033/2020|EPI_ISL_421207|2020-03-31|Europe,2020.24590163934,4800,754333.657469331,644138.341118424
hCoV-19/Belgium/ULG-10154/2020|EPI_ISL_447150|2020-04-18|Europe,2020.29508196721,4051,739260.79746163,643798.614983222
hCoV-19/Belgium/ULG-10152/2020|EPI_ISL_447140|2020-04-18|Europe,2020.29508196721,4100,732228.320292446,639248.937911436
hCoV-19/Belgium/OS-0325137/2020|EPI_ISL_420394|2020-03-25|Europe,2020.22950819672,1150,655534.436721049,669331.86243515
hCoV-19/Belgium/Rega-0328191/2020|EPI_ISL_458161|2020-03-28|Europe,2020.23770491803,7370,605315.150866802,620010.041786515
hCoV-19/Belgium/ULG-10162/2020|EPI_ISL_447156|2020-04-18|Europe,2020.29508196721,4900,756147.996083106,627788.407395898
hCoV-19/Belgium/ULG-7729/2020|EPI_ISL_418630|2020-03-17|Europe,2020.20765027322,4400,725156.200044067,643393.001597768
hCoV-19/Belgium/ULG-9715/2020|EPI_ISL_418656|2020-03-22|Europe,2020.22131147541,4031,736369.952252812,642505.771597659
hCoV-19/Belgium/SC-0325380/2020|EPI_ISL_462234|2020-03-25,2020.22950819672,5070,671660.024361806,619734.868467993
hCoV-19/Belgium/MG-0402383/2020|EPI_ISL_462237|2020-04-02,2020.25136612022,6043,658136.028610079,626301.811131923
hCoV-19/Belgium/ULG-10062/2020|EPI_ISL_424664|2020-04-05|Europe,2020.25956284153,4100,731172.956283828,642991.210494966
hCoV-19/Belgium/ULG-10099/2020|EPI_ISL_427350|2020-04-06|Europe,2020.26229508197,4030,739792.941476986,647003.515901518
hCoV-19/Belgium/HMM-0317327/2020|EPI_ISL_462181|2020-03-17,2020.20765027322,4451,733731.999417695,653415.747300016
hCoV-19/Belgium/ULG-10092/2020|EPI_ISL_424647|2020-04-04|Europe,2020.25683060109,4480,718953.301150116,637270.108885924
hCoV-19/Belgium/CJM-0323175/2020|EPI_ISL_420432|2020-03-23|Europe,2020.22404371585,5988,NA,NA
hCoV-19/Belgium/RHA-0324177/2020|EPI_ISL_420434|2020-03-24|Europe,2020.22677595628,7333,607859.771193647,627245.613748266
hCoV-19/Belgium/Rega-0328195/2020|EPI_ISL_458165|2020-03-28|Europe,2020.23770491803,7370,612774.80932206,616647.149250765
hCoV-19/Belgium/PM-0324144/2020|EPI_ISL_420401|2020-03-24|Europe,2020.22677595628,7800,609597.321341237,649794.982502591
hCoV-19/Belgium/Rega-0329225/2020|EPI_ISL_458195|2020-03-29|Europe,2020.24043715847,7332,607888.192597033,633939.962632061
hCoV-19/Belgium/ULG-10094/2020|EPI_ISL_424650|2020-04-04|Europe,2020.25683060109,4140,741350.463134731,638352.706029381
hCoV-19/Belgium/ULG-10086/2020|EPI_ISL_424644|2020-04-04|Europe,2020.25683060109,4840,763906.602280075,650951.956194052
hCoV-19/Belgium/ULG-9618/2020|EPI_ISL_418648|2020-03-22|Europe,2020.22131147541,4570,712450.337350459,627200.31703903
hCoV-19/Belgium/ULG-9617/2020|EPI_ISL_418647|2020-03-22,2020.22131147541,4190,733338.677581932,621620.613947002
hCoV-19/Belgium/ULG-10190/2020|EPI_ISL_455978|2020-5-10|Europe,2020.35519125683,4130,736529.270962179,637639.398733141
hCoV-19/Belgium/BD0331362/2020|EPI_ISL_462216|2020-03-31,2020.24590163934,6567,635833.752442592,616549.059189302
hCoV-19/Belgium/PY-0407405/2020|EPI_ISL_462259|2020-04-07,2020.2650273224,1170,652429.097224776,664506.350504212
hCoV-19/Belgium/OT-0319109/2020|EPI_ISL_420365|2020-03-19|Europe,2020.2131147541,4020,739541.389202232,649742.848755743
hCoV-19/Belgium/ULG-9738/2020|EPI_ISL_418662|2020-03-22|Europe,2020.22131147541,4101,730381.676859369,645670.04006414
hCoV-19/Belgium/Rega-0330250/2020|EPI_ISL_458220|2020-03-30|Europe,2020.24316939891,7540,582647.217968648,646252.454387391
hCoV-19/Belgium/Rega-0329228/2020|EPI_ISL_458198|2020-03-29|Europe,2020.24043715847,9880,584913.416110936,691776.469879573
hCoV-19/Belgium/Rega-0328194/2020|EPI_ISL_458164|2020-03-28|Europe,2020.23770491803,7180,640107.713335765,634543.268423556
hCoV-19/Belgium/ULG-8532/2020|EPI_ISL_418635|2020-03-19|Europe,2020.2131147541,4020,738582.443275743,649828.060857379
hCoV-19/Belgium/ULG-10055/2020|EPI_ISL_424652|2020-04-05|Europe,2020.25956284153,4845,761789.361359551,639036.61561205
hCoV-19/Belgium/LA-0403382/2020|EPI_ISL_462236|2020-04-03,2020.25409836066,5030,674657.150296433,638512.146051671
hCoV-19/Belgium/ULG-10056/2020|EPI_ISL_424655|2020-04-05|Europe,2020.25956284153,4845,762159.277816344,633852.144429244
hCoV-19/Belgium/ULG-10163/2020|EPI_ISL_447157|2020-04-19|Europe,2020.29781420765,4831,758910.214387746,648675.589367747
hCoV-19/Belgium/ULG-10069/2020|EPI_ISL_424633|2020-04-03|Europe,2020.25409836066,4845,763118.45853703,639651.659972352
hCoV-19/Belgium/ULG-10111/2020|EPI_ISL_427361|2020-04-07|Europe,2020.2650273224,4800,754130.474655306,641216.898663972
hCoV-19/Belgium/ULG-10137/2020|EPI_ISL_427382|2020-04-08|Europe,2020.26775956284,4910,757177.375261288,635457.07088652
hCoV-19/Belgium/AGR-0324174/2020|EPI_ISL_420431|2020-03-24|Europe,2020.22677595628,59880,NA,NA
hCoV-19/Belgium/Rega-0326261/2020|EPI_ISL_458231|2020-03-26|Europe,2020.23224043716,3150,665901.227793814,686825.75153054
hCoV-19/Belgium/UGent-60/2020|EPI_ISL_451171|2020-04-06|Europe,2020.26229508197,NA,NA,NA
hCoV-19/Belgium/Rega-0329230/2020|EPI_ISL_458200|2020-03-29|Europe,2020.24043715847,7850,623950.456168709,651343.376307558
hCoV-19/Belgium/BS-0325183/2020|EPI_ISL_420440|2020-03-25|Europe,2020.22950819672,7540,586788.018737855,649493.822513917
hCoV-19/Belgium/Rega-0328203/2020|EPI_ISL_458173|2020-03-28|Europe,2020.23770491803,3020,667670.273335192,678254.487931914
hCoV-19/Belgium/Rega-0328209/2020|EPI_ISL_458179|2020-03-28|Europe,2020.23770491803,7012,615776.610778042,626825.747196547
hCoV-19/Belgium/RDC-030961/2020|EPI_ISL_420452|2020-03-09|Europe,2020.18579234973,1170,653362.488756987,666521.030157998
hCoV-19/Belgium/ULG-7500/2020|EPI_ISL_418632|2020-03-16|Europe,2020.20491803279,4140,740551.630756998,633960.802382478
hCoV-19/Belgium/ULG-7134/2020|EPI_ISL_418628|2020-03-16|Europe,2020.20491803279,4100,731824.389850635,641866.78826519
hCoV-19/Belgium/Rega-0329235/2020|EPI_ISL_458205|2020-03-29|Europe,2020.24043715847,7971,597922.988057891,634395.069471654
hCoV-19/Belgium/Rega-0328193/2020|EPI_ISL_458163|2020-03-28|Europe,2020.23770491803,7000,619905.005539282,626385.732573266
hCoV-19/Belgium/Rega-0329226/2020|EPI_ISL_458196|2020-03-29|Europe,2020.24043715847,7080,613495.018714459,616499.520222121
hCoV-19/Belgium/Rega-0330248/2020|EPI_ISL_458218|2020-03-30|Europe,2020.24316939891,7602,593966.679708663,636634.903007833
hCoV-19/Belgium/Rega-0328197/2020|EPI_ISL_458167|2020-03-28|Europe,2020.23770491803,7331,614128.701475467,632021.389100702
hCoV-19/Belgium/CCM-0324167/2020|EPI_ISL_420424|2020-03-24|Europe,2020.22677595628,7000,619779.865892222,626451.921991273
hCoV-19/Belgium/Rega-0328192/2020|EPI_ISL_458162|2020-03-28|Europe,2020.23770491803,7100,633992.602694524,627252.597281761
hCoV-19/Belgium/UNJP-0324125/2020|EPI_ISL_420382|2020-03-24|Europe,2020.22677595628,1160,656993.083389752,664850.908366641
hCoV-19/Belgium/Rega-0329227/2020|EPI_ISL_458197|2020-03-29|Europe,2020.24043715847,7050,613692.629279988,637211.651073727
hCoV-19/Belgium/Rega-0329220/2020|EPI_ISL_458190|2020-03-29|Europe,2020.24043715847,7041,623392.865659312,617480.112690753
hCoV-19/Belgium/Rega-0328199/2020|EPI_ISL_458169|2020-03-28|Europe,2020.23770491803,7000,619252.162437747,626762.354065959
hCoV-19/Belgium/Rega-0328202/2020|EPI_ISL_458172|2020-03-28|Europe,2020.23770491803,7340,611260.985550386,621766.919969785
hCoV-19/Belgium/Rega-0330253/2020|EPI_ISL_458223|2020-03-30|Europe,2020.24316939891,1640,650438.951186287,657924.731908374
hCoV-19/Belgium/BJA-0409406/2020|EPI_ISL_462260|2020-04-09,2020.27049180328,7500,579257.971495689,639153.587288567
hCoV-19/Belgium/DPG-0325123/2020|EPI_ISL_420380|2020-03-25|Europe,2020.22950819672,7012,615851.857920577,626346.297775113
hCoV-19/Belgium/GMJ-0324132/2020|EPI_ISL_420389|2020-03-24|Europe,2020.22677595628,7000,622628.562003636,625122.201253192
hCoV-19/Belgium/GM-0323139/2020|EPI_ISL_420396|2020-03-23|Europe,2020.22404371585,7340,613205.365510817,621484.85871592
hCoV-19/Belgium/BEG-0324149/2020|EPI_ISL_420406|2020-03-24|Europe,2020.22677595628,7340,611950.63583765,622845.179477647
hCoV-19/Belgium/DJ-0409407/2020|EPI_ISL_462261|2020-04-09,2020.27049180328,1970,660284.42684007,668981.326996456
hCoV-19/Belgium/Rega-0329229/2020|EPI_ISL_458199|2020-03-29|Europe,2020.24043715847,7332,610866.996025928,634425.994706191
hCoV-19/Belgium/Rega-0329222/2020|EPI_ISL_458192|2020-03-29|Europe,2020.24043715847,7070,630809.535223493,634849.504248323
hCoV-19/Belgium/20A38/2020|EPI_ISL_452148|2020-04-01|Europe,2020.24863387978,NA,NA,NA
hCoV-19/Belgium/Rega-0328190/2020|EPI_ISL_458160|2020-03-28|Europe,2020.23770491803,7340,614476.959269159,621368.852559525
hCoV-19/Belgium/GE-0317105/2020|EPI_ISL_420361|2020-03-17|Europe,2020.20765027322,7334,609346.008467919,632047.252487722
hCoV-19/Belgium/VL-0318104/2020|EPI_ISL_420360|2020-03-18|Europe,2020.21038251366,7540,586530.117649849,647322.613519496
hCoV-19/Belgium/UM-0318103/2020|EPI_ISL_420359|2020-03-18|Europe,2020.21038251366,7387,602108.032471835,617826.788829075
hCoV-19/Belgium/VD-0318102/2020|EPI_ISL_420358|2020-03-18|Europe,2020.21038251366,7387,604131.302563964,612702.155484843
hCoV-19/Belgium/ULG-10134/2020|EPI_ISL_427379|2020-04-08|Europe,2020.26775956284,4100,731435.117693257,640335.751754882
hCoV-19/Belgium/ULG-10049/2020|EPI_ISL_424658|2020-04-05|Europe,2020.25956284153,4102,733999.333636597,643283.112903193
hCoV-19/Belgium/GJM-0328354/2020|EPI_ISL_462208|2020-03-28,2020.23770491803,5300,698940.474684809,633439.274158339
hCoV-19/Belgium/DB-0323140/2020|EPI_ISL_420397|2020-03-23|Europe,2020.22404371585,1180,648381.188856186,663162.020606745
hCoV-19/Belgium/20A55/2020|EPI_ISL_452152|2020-04-20|Europe,2020.30054644809,NA,NA,NA
hCoV-19/Belgium/UGent-63/2020|EPI_ISL_451174|2020-04-06|Europe,2020.26229508197,NA,NA,NA
hCoV-19/Belgium/RS-0324138/2020|EPI_ISL_420395|2020-03-24|Europe,2020.22677595628,6183,648732.465876985,629153.810199301
hCoV-19/Belgium/EBN-0323116/2020|EPI_ISL_420373|2020-03-23|Europe,2020.22404371585,6010,656764.416294378,619072.036436229
hCoV-19/Belgium/EM-0407403/2020|EPI_ISL_462257|2020-04-07,2020.2650273224,1070,644614.617998245,670396.020321919
hCoV-19/Belgium/MC-0323129/2020|EPI_ISL_420386|2020-03-23|Europe,2020.22404371585,1170,653026.398962613,666240.852408093
hCoV-19/Belgium/ULG-10023/2020|EPI_ISL_427341|2020-03-30|Europe,2020.24316939891,4100,729546.251754598,641147.11924527
hCoV-19/Belgium/NKR-030645/2020|EPI_ISL_418795|2020-03-06|Europe,2020.17759562842,1083,646253.283229158,674090.091583299
hCoV-19/Belgium/LJ-0328310/2020|EPI_ISL_462164|2020-03-28,2020.23770491803,7110,634496.514080743,632502.175660496
hCoV-19/Belgium/HN-0317324/2020|EPI_ISL_462178|2020-03-17,2020.20765027322,4140,741383.691882189,636729.101780446
hCoV-19/Belgium/ULG-8810/2020|EPI_ISL_418642|2020-03-19|Europe,2020.2131147541,4032,738584.119899513,646214.394562496
hCoV-19/Belgium/CA-0319111/2020|EPI_ISL_420368|2020-03-19|Europe,2020.2131147541,7300,608610.177522419,624572.058607972
hCoV-19/Belgium/20A30/2020|EPI_ISL_451935|2020-03-18|Europe,2020.21038251366,NA,NA,NA
hCoV-19/Belgium/ULG-9619/2020|EPI_ISL_418649|2020-03-22|Europe,2020.22131147541,4340,727210.553996886,652246.657914525
hCoV-19/Belgium/ULG-9725/2020|EPI_ISL_418659|2020-03-22|Europe,2020.22131147541,4000,735350.046703848,645270.614728
hCoV-19/Belgium/LV-0324133/2020|EPI_ISL_420390|2020-03-24|Europe,2020.22677595628,7000,622065.977038471,628435.170160801
hCoV-19/Belgium/STM-0324170/2020|EPI_ISL_420427|2020-03-24|Europe,2020.22677595628,7300,608465.363657807,626098.094044828
hCoV-19/Belgium/AF-0327321/2020|EPI_ISL_462175|2020-03-27,2020.2349726776,6001,656326.000465578,618830.926421162
hCoV-19/Belgium/Rega-0327213/2020|EPI_ISL_458183|2020-03-27|Europe,2020.2349726776,6238,652111.216882986,633555.915783879
hCoV-19/Belgium/Rega-0329219/2020|EPI_ISL_458189|2020-03-29|Europe,2020.24043715847,7000,622915.775901243,627462.927836731
hCoV-19/Belgium/Rega-0329237/2020|EPI_ISL_458207|2020-03-29|Europe,2020.24043715847,7040,619357.568886858,619747.428772907
hCoV-19/Belgium/Rega-0329236/2020|EPI_ISL_458206|2020-03-29|Europe,2020.24043715847,9990,583723.121456066,709028.714898039
hCoV-19/Belgium/NML-0325127/2020|EPI_ISL_420384|2020-03-25|Europe,2020.22950819672,1800,653467.393343286,678891.361255102
hCoV-19/Belgium/DNM-0330351/2020|EPI_ISL_462205|2020-03-30,2020.24316939891,4210,698912.020093437,642473.198096258
hCoV-19/Belgium/ULG-10074/2020|EPI_ISL_424634|2020-04-03|Europe,2020.25409836066,4000,732759.815093932,648249.326280251
hCoV-19/Belgium/ULG-10030/2020|EPI_ISL_421204|2020-03-31|Europe,2020.24590163934,4920,743581.820262608,625604.756786948
hCoV-19/Belgium/SG-0328314/2020|EPI_ISL_462168|2020-03-28,2020.23770491803,7061,625206.160550939,636108.54020965
hCoV-19/Belgium/ULG-10136/2020|EPI_ISL_427381|2020-04-08|Europe,2020.26775956284,4100,730805.072095901,639644.588025019
hCoV-19/Belgium/ULG-10142/2020|EPI_ISL_427385|2020-04-08|Europe,2020.26775956284,4000,733499.383157468,645867.745438738
hCoV-19/Belgium/DMT-0411408/2020|EPI_ISL_462262|2020-04-11,2020.27595628415,7860,613350.324733853,654434.1791413
hCoV-19/Belgium/ITM_C511/2020|EPI_ISL_434384|2020-04-15|Europe,2020.2868852459,NA,NA,NA
hCoV-19/Belgium/GE-030573/2020|EPI_ISL_420329|2020-03-05|Europe,2020.17486338798,3770,736762.256658753,666732.090698292
hCoV-19/Belgium/KA-03042/2020|EPI_ISL_417424|2020-03-04|Europe,2020.17213114754,2460,686306.597862696,717042.087474873
hCoV-19/Belgium/Rega-0328189/2020|EPI_ISL_458159|2020-03-28|Europe,2020.23770491803,7080,616434.688862328,622619.792625561
hCoV-19/Belgium/ULG-10164/2020|EPI_ISL_447158|2020-04-19|Europe,2020.29781420765,4800,754871.641480317,641754.735392684
hCoV-19/Belgium/SB-0407394/2020|EPI_ISL_462248|2020-04-07,2020.2650273224,3700,728749.454517989,662825.512858143
hCoV-19/Belgium/ECC-030686/2020|EPI_ISL_420342|2020-03-06|Europe,2020.17759562842,5020,676117.110806478,628799.173408685
hCoV-19/Belgium/DLDJ-030569/2020|EPI_ISL_420325|2020-03-05|Europe,2020.17486338798,2382,697122.718218174,739131.21474889
hCoV-19/Belgium/RA-030445/2020|EPI_ISL_420443|2020-03-04|Europe,2020.17213114754,3500,722276.571427805,682154.861694484
hCoV-19/Belgium/VLM-03011/2020|EPI_ISL_415153|2020-03-03|Europe,2020.1693989071,3040,664941.128284643,666320.087821724
hCoV-19/Belgium/VAG-03013/2020|EPI_ISL_415155|2020-03-01|Europe,2020.16393442623,3040,668894.532707532,662898.100241809
hCoV-19/Belgium/DA-030691/2020|EPI_ISL_420347|2020-03-06|Europe,2020.17759562842,6180,650601.97034129,626855.982622847
hCoV-19/Belgium/DB-03023/2020|EPI_ISL_416470|2020-03-02|Europe,2020.16666666667,4218,702961.284576058,633963.066755335
hCoV-19/Belgium/SN-03031/2020|EPI_ISL_416469|2020-03-03|Europe,2020.1693989071,3010,677994.989763731,674870.370933524
hCoV-19/Belgium/VHRA-030644/2020|EPI_ISL_418794|2020-03-06|Europe,2020.17759562842,9850,592921.351541867,692232.952993135
hCoV-19/Belgium/ULG-9719/2020|EPI_ISL_418658|2020-03-22,2020.22131147541,4000,738480.072375427,650085.180601866
hCoV-19/Belgium/ULG-10034/2020|EPI_ISL_427342|2020-03-31,2020.24590163934,4000,733976.126428493,645384.920463992
hCoV-19/Belgium/ULG-6754/2020|EPI_ISL_417019|2020-03-14|Europe,2020.19945355191,4700,782859.431557475,646083.149962156
hCoV-19/Belgium/ITM_C420/2020|EPI_ISL_434383|2020-04-10|Europe,2020.27322404372,NA,NA,NA
hCoV-19/Belgium/ULG-4163/2020|EPI_ISL_417013|2020-03-09|Europe,2020.18579234973,4990,751481.182460086,611871.10433556
hCoV-19/Belgium/ULG-10007/2020|EPI_ISL_421186|2020-03-30|Europe,2020.24316939891,4761,784313.597401017,625830.80534106
hCoV-19/Belgium/ITM_C067/2020|EPI_ISL_450725|2020-03-26|Europe,2020.23224043716,NA,NA,NA
hCoV-19/Belgium/ITM_C413/2020|EPI_ISL_450737|2020-04-10|Europe,2020.27322404372,NA,NA,NA
hCoV-19/Belgium/Rega-0329221/2020|EPI_ISL_458191|2020-03-29|Europe,2020.24043715847,3040,668576.781025687,662621.957465924
hCoV-19/Belgium/ULG-6503/2020|EPI_ISL_417016|2020-03-13|Europe,2020.19672131148,4623,743250.264739732,645184.861776414
hCoV-19/Belgium/VHC-030655/2020|EPI_ISL_420449|2020-03-06|Europe,2020.17759562842,4607,746960.462294902,657257.753707669
hCoV-19/Belgium/ULG-10058/2020|EPI_ISL_424653|2020-04-05|Europe,2020.25956284153,4970,766477.155471894,631011.393570992
hCoV-19/Belgium/ULG-10115/2020|EPI_ISL_427364|2020-04-07|Europe,2020.2650273224,4900,757330.333695071,629314.119689862
hCoV-19/Belgium/ULG-10051/2020|EPI_ISL_424660|2020-04-05|Europe,2020.25956284153,4900,753323.044772269,630668.022674869
hCoV-19/Belgium/ULG-10188/2020|EPI_ISL_455976|2020-5-11|Europe,2020.35792349727,4800,754182.458649695,646791.610276589
hCoV-19/Belgium/ULG-8937/2020|EPI_ISL_447122|2020-03-20|Europe,2020.21584699454,4700,778975.872373919,642023.418726258
hCoV-19/Belgium/AO-04074040/2020|EPI_ISL_462258|2020-04-07,2020.2650273224,1080,648475.870968011,672485.43296706
hCoV-19/Belgium/ULG-6972/2020|EPI_ISL_418624|2020-03-15|Europe,2020.20218579235,4960,766723.631321323,621017.35149929
hCoV-19/Belgium/UGent-13/2020|EPI_ISL_425055|2020-03-20|Europe,2020.21584699454,NA,NA,NA
hCoV-19/Belgium/ULG-0174/2020|EPI_ISL_447125|2020-03-23|Europe,2020.22404371585,4700,774267.477265988,643450.323824673
hCoV-19/Belgium/ULG-0191/2020|EPI_ISL_447131|2020-03-23|Europe,2020.22404371585,4700,776101.129164684,644715.54359282
hCoV-19/Belgium/ULG-0182/2020|EPI_ISL_447126|2020-03-23|Europe,2020.22404371585,4700,779601.092545617,644104.249594879
hCoV-19/Belgium/DRV-0325157/2020|EPI_ISL_420414|2020-03-25|Europe,2020.22950819672,4520,706621.867584774,639337.966334947
hCoV-19/Belgium/UGent-34/2020|EPI_ISL_434352|2020-03-26|Europe,2020.23224043716,NA,NA,NA
hCoV-19/Belgium/UGent-45/2020|EPI_ISL_434361|2020-03-29|Europe,2020.24043715847,NA,NA,NA
hCoV-19/Belgium/HJ-0328338/2020|EPI_ISL_462192|2020-03-28,2020.23770491803,9890,600510.476804145,679662.512021592
hCoV-19/Belgium/UGent-36/2020|EPI_ISL_434354|2020-03-27|Europe,2020.2349726776,NA,NA,NA
hCoV-19/Belgium/UGent-23/2020|EPI_ISL_451164|2020-03-24|Europe,2020.22677595628,NA,NA,NA
hCoV-19/Belgium/ULG-10186/2020|EPI_ISL_455974|2020-5-11|Europe,2020.35792349727,4100,730362.902970241,639658.405745272
hCoV-19/Belgium/CFM-0328312/2020|EPI_ISL_462166|2020-03-28,2020.23770491803,7120,633321.956625744,620248.590772848
hCoV-19/Belgium/VA-0327319/2020|EPI_ISL_462173|2020-03-27,2020.2349726776,8520,574047.304106171,671647.326703827
hCoV-19/Belgium/DVBJ-030468/2020|EPI_ISL_420324|2020-03-04|Europe,2020.17213114754,1440,643258.815093961,653048.837176526
hCoV-19/Belgium/DAL-0327318/2020|EPI_ISL_462172|2020-03-27,2020.2349726776,8570,586005.246708882,671680.482860166
hCoV-19/Belgium/UGent-58/2020|EPI_ISL_451169|2020-04-05|Europe,2020.25956284153,NA,NA,NA
hCoV-19/Belgium/UGent-53/2020|EPI_ISL_451166|2020-03-31|Europe,2020.24590163934,NA,NA,NA
hCoV-19/Belgium/ULG-0546/2020|EPI_ISL_447135|2020-03-24|Europe,2020.22677595628,4830,760993.937910301,645486.227220323
hCoV-19/Belgium/ULG-10054/2020|EPI_ISL_424656|2020-04-05|Europe,2020.25956284153,4880,752772.558341228,656667.605448212
hCoV-19/Belgium/ULG-10012/2020|EPI_ISL_421190|2020-03-31|Europe,2020.24590163934,4000,732790.681179748,648745.20589299
hCoV-19/Belgium/ULG-10085/2020|EPI_ISL_424645|2020-04-04|Europe,2020.25683060109,4630,744175.704441571,645591.334600818
hCoV-19/Belgium/JBE-0317326/2020|EPI_ISL_462180|2020-03-17,2020.20765027322,4000,734135.878454173,645109.04534342
hCoV-19/Belgium/ULG-10117/2020|EPI_ISL_427365|2020-04-07|Europe,2020.2650273224,4400,727010.084487261,642316.70491857
hCoV-19/Belgium/ULG-10035/2020|EPI_ISL_427343|2020-03-31|Europe,2020.24590163934,4020,740635.473382521,652737.33884595
hCoV-19/Belgium/ULG-10158/2020|EPI_ISL_447153|2020-04-18|Europe,2020.29508196721,4020,736018.969273173,646736.589716631
hCoV-19/Belgium/ULG-10176/2020|EPI_ISL_455964|2020-5-9|Europe,2020.35245901639,4000,739485.205903959,650959.670259153
hCoV-19/Belgium/ULG-0544/2020|EPI_ISL_447134|2020-03-24|Europe,2020.22677595628,4851,764971.927018376,659864.039982893
hCoV-19/Belgium/ULG-10009/2020|EPI_ISL_421188|2020-03-30|Europe,2020.24316939891,4537,715744.717991809,643948.051226703
hCoV-19/Belgium/ULG-10011/2020|EPI_ISL_421189|2020-03-30|Europe,2020.24316939891,4760,788286.597419253,620075.939188472
hCoV-19/Belgium/ULG-10003/2020|EPI_ISL_421183|2020-03-30|Europe,2020.24316939891,4432,730997.282931074,656495.13734795
hCoV-19/Belgium/ULG-10097/2020|EPI_ISL_427348|2020-04-06|Europe,2020.26229508197,4100,731715.243920585,643802.502873285
hCoV-19/Belgium/ULG-10103/2020|EPI_ISL_427354|2020-04-06|Europe,2020.26229508197,4130,733681.669609044,635996.306764513
hCoV-19/Belgium/ULG-10098/2020|EPI_ISL_427349|2020-04-06|Europe,2020.26229508197,4020,739070.346485392,648107.425751257
hCoV-19/Belgium/ULG-9620/2020|EPI_ISL_418650|2020-03-22|Europe,2020.22131147541,4180,733713.338293188,626336.189480608
hCoV-19/Belgium/ULG-10130/2020|EPI_ISL_427375|2020-04-07|Europe,2020.2650273224,4100,733299.650128438,639568.482734367
hCoV-19/Belgium/SAA-0330367/2020|EPI_ISL_462221|2020-03-30,2020.24316939891,4430,730842.107351146,650542.658832768
hCoV-19/Belgium/ULG-8617/2020|EPI_ISL_418639|2020-03-19|Europe,2020.2131147541,4000,734139.772461749,645128.848133672
hCoV-19/Belgium/ULG-10026/2020|EPI_ISL_421200|2020-03-31|Europe,2020.24590163934,4261,707171.270538886,646350.509798955
hCoV-19/Belgium/ULG-10148/2020|EPI_ISL_447145|2020-04-18|Europe,2020.29508196721,4040,737939.575800469,654472.072575386
hCoV-19/Belgium/ULG-10149/2020|EPI_ISL_447146|2020-04-18|Europe,2020.29508196721,4020,737524.024168761,648559.870579196
hCoV-19/Belgium/ULG-10160/2020|EPI_ISL_447155|2020-04-18|Europe,2020.29508196721,4040,739287.075242271,653112.056497733
hCoV-19/Belgium/ULG-10184/2020|EPI_ISL_455972|2020-5-10|Europe,2020.35519125683,4680,738679.57333199,655327.756705589
hCoV-19/Belgium/ULG-10181/2020|EPI_ISL_455969|2020-5-10|Europe,2020.35519125683,4540,716738.982131019,636005.093094996
hCoV-19/Belgium/ULG-10172/2020|EPI_ISL_455960|2020-5-8|Europe,2020.34972677596,4680,739289.258221061,656524.273563619
hCoV-19/Belgium/ULG-10182/2020|EPI_ISL_455970|2020-5-10|Europe,2020.35519125683,4040,738018.596116157,652585.340738824
hCoV-19/Belgium/ULG-6732/2020|EPI_ISL_418623|2020-03-14|Europe,2020.19945355191,4102,733742.327779135,643580.492823519
hCoV-19/Belgium/ULG-6670/2020|EPI_ISL_417018|2020-03-14|Europe,2020.19945355191,4000,733806.547494919,648102.63927375
hCoV-19/Belgium/ULG-9694/2020|EPI_ISL_418654|2020-03-22|Europe,2020.22131147541,4102,733904.26002,644353.340233885
hCoV-19/Belgium/ULG-9732/2020|EPI_ISL_418660|2020-03-22|Europe,2020.22131147541,4020,739448.974321606,650047.564118298
hCoV-19/Belgium/MFM-0330363/2020|EPI_ISL_462217|2020-03-30,2020.24316939891,4350,717843.65718892,652868.518496332
hCoV-19/Belgium/20A37/2020|EPI_ISL_452142|2020-03-30|Europe,2020.24316939891,NA,NA,NA
hCoV-19/Belgium/ULG-10106/2020|EPI_ISL_427357|2020-04-07|Europe,2020.2650273224,4040,740018.944884928,653530.692990178
hCoV-19/Belgium/ULG-10126/2020|EPI_ISL_427372|2020-04-07|Europe,2020.2650273224,4430,732684.022187045,650539.004758384
hCoV-19/Belgium/ULG-10133/2020|EPI_ISL_427378|2020-04-07|Europe,2020.2650273224,5570,687636.437277734,594045.934422865
hCoV-19/Belgium/HC-030760/2020|EPI_ISL_420451|2020-03-07|Europe,2020.18032786885,7000,617986.479116679,627272.522650873
hCoV-19/Belgium/LL-0328341/2020|EPI_ISL_462195|2020-03-28,2020.23770491803,9500,615597.852789499,662973.170596119
hCoV-19/Belgium/ULG-10168/2020|EPI_ISL_447162|2020-04-19|Europe,2020.29781420765,4820,755393.082864124,645644.552950241
hCoV-19/Belgium/ULG-10127/2020|EPI_ISL_427373|2020-04-07|Europe,2020.2650273224,4400,724436.455449499,642111.74585585
hCoV-19/Belgium/ULG-10053/2020|EPI_ISL_424661|2020-04-05|Europe,2020.25956284153,4800,753399.563675994,643912.135599101
hCoV-19/Belgium/ULG-10006/2020|EPI_ISL_421185|2020-03-30|Europe,2020.24316939891,4780,769843.499844412,614345.755466045
hCoV-19/Belgium/ULG-10105/2020|EPI_ISL_427356|2020-04-06|Europe,2020.26229508197,4030,739514.571832072,646666.074549348
hCoV-19/Belgium/ULG-10043/2020|EPI_ISL_421210|2020-03-31|Europe,2020.24590163934,4400,727507.461826635,646817.254383617
hCoV-19/Belgium/DLM-0330385/2020|EPI_ISL_462239|2020-03-30,2020.24316939891,9920,597812.431344649,701542.407245275
hCoV-19/Belgium/Rega-0316260/2020|EPI_ISL_458230|2020-03-16|Europe,2020.20491803279,3090,664238.738935144,663465.478735325
hCoV-19/Belgium/RR-030699/2020|EPI_ISL_420355|2020-03-06|Europe,2020.17759562842,9600,595733.136710995,659674.240398067
hCoV-19/Belgium/BG-030955/2020|EPI_ISL_418984|2020-03-09|Europe,2020.18579234973,3950,733775.231448384,711251.401440588
hCoV-19/Belgium/AKM-030670/2020|EPI_ISL_420326|2020-03-06|Europe,2020.17759562842,3020,670797.48289223,677958.664060374
hCoV-19/Belgium/DD-030593/2020|EPI_ISL_420349|2020-03-05|Europe,2020.17486338798,7120,633249.453514938,613578.769265285
hCoV-19/Belgium/HAJ-0328392/2020|EPI_ISL_462246|2020-03-29,2020.24043715847,3950,738872.472328567,709152.144213282
hCoV-19/Belgium/QKJ-03015/2020|EPI_ISL_415158|2020-03-01|Europe,2020.16393442623,1000,648851.615239692,672237.429704783
hCoV-19/Belgium/LY-030575/2020|EPI_ISL_420331|2020-03-05|Europe,2020.17486338798,3960,738469.238111211,707097.313829951
hCoV-19/Belgium/DBD-03024/2020|EPI_ISL_416471|2020-03-02|Europe,2020.16666666667,3010,675590.685646309,674049.148912174
hCoV-19/Belgium/MCW-030574/2020|EPI_ISL_420330|2020-03-05|Europe,2020.17486338798,3910,728524.152329409,715198.573183926
hCoV-19/Belgium/UMF-03025/2020|EPI_ISL_416472|2020-03-02|Europe,2020.16666666667,3010,675770.144787631,677340.444318793
hCoV-19/Belgium/Rega-0328186/2020|EPI_ISL_458156|2020-03-28|Europe,2020.23770491803,3293,697273.410598799,685405.742414438
hCoV-19/Belgium/UGent-6/2020|EPI_ISL_419265|2020-03-24|Europe,2020.22677595628,NA,NA,NA
hCoV-19/Belgium/NA-0328342/2020|EPI_ISL_462197|2020-03-28,2020.23770491803,3680,742267.862502894,702881.261773179
hCoV-19/Belgium/CF-0327345/2020|EPI_ISL_462199|2020-03-27,2020.2349726776,3740,736156.794017164,672859.833220401
hCoV-19/Belgium/VHEJ-0329357/2020|EPI_ISL_462211|2020-03-29,2020.24043715847,2520,666833.798610213,710135.605498291
hCoV-19/Belgium/Rega-0329217/2020|EPI_ISL_458187|2020-03-29|Europe,2020.24043715847,3582,715084.408491684,697996.749488315
hCoV-19/Belgium/HMJ-0330330/2020|EPI_ISL_462184|2020-03-30,2020.24316939891,2340,682071.179680302,724517.22857162
hCoV-19/Belgium/UGent-8/2020|EPI_ISL_425052|2020-03-25|Europe,2020.22950819672,NA,NA,NA
hCoV-19/Belgium/UGent-4/2020|EPI_ISL_419266|2020-03-24|Europe,2020.22677595628,NA,NA,NA
hCoV-19/Belgium/UGent-44/2020|EPI_ISL_434360|2020-03-29|Europe,2020.24043715847,NA,NA,NA
hCoV-19/Belgium/UGent-46/2020|EPI_ISL_434362|2020-03-29|Europe,2020.24043715847,NA,NA,NA
hCoV-19/Belgium/UGent-52/2020|EPI_ISL_451165|2020-03-31|Europe,2020.24590163934,NA,NA,NA
hCoV-19/Belgium/Rega-0330257/2020|EPI_ISL_458227|2020-03-30|Europe,2020.24316939891,3980,698639.750252063,696456.198080405
hCoV-19/Belgium/Rega-0330254/2020|EPI_ISL_458224|2020-03-30|Europe,2020.24316939891,3200,683947.419240605,683662.146904377
hCoV-19/Belgium/UGent-12/2020|EPI_ISL_419264|2020-03-20|Europe,2020.21584699454,NA,NA,NA
hCoV-19/Belgium/UGent-30/2020|EPI_ISL_434348|2020-03-26|Europe,2020.23224043716,NA,NA,NA
hCoV-19/Belgium/UGent-35/2020|EPI_ISL_434353|2020-03-26|Europe,2020.23224043716,NA,NA,NA
hCoV-19/Belgium/UGent-32/2020|EPI_ISL_434350|2020-03-26|Europe,2020.23224043716,NA,NA,NA
hCoV-19/Belgium/UGent-43/2020|EPI_ISL_434359|2020-03-28,2020.23770491803,NA,NA,NA
hCoV-19/Belgium/ITM_C184/2020|EPI_ISL_450730|2020-03-30|Europe,2020.24316939891,NA,NA,NA
hCoV-19/Belgium/VDA-0330387/2020|EPI_ISL_462241|2020-03-30,2020.24316939891,9050,607994.91165642,691487.668209221
hCoV-19/Belgium/DWJ-0324333/2020|EPI_ISL_462187|2020-03-24,2020.22677595628,9000,602073.133064177,692663.985368161
hCoV-19/Belgium/Rega-0328200/2020|EPI_ISL_458170|2020-03-28|Europe,2020.23770491803,1830,656310.62904865,677282.685004142
hCoV-19/Belgium/RMO-0329386/2020|EPI_ISL_462240|2020-03-29,2020.24043715847,9270,613387.90512186,692031.687484799
hCoV-19/Belgium/Rega-0330247/2020|EPI_ISL_458217|2020-03-30|Europe,2020.24316939891,7850,625092.478132132,652820.332059001
hCoV-19/Belgium/UGent-54/2020|EPI_ISL_451167|2020-04-01|Europe,2020.24863387978,NA,NA,NA
hCoV-19/Belgium/UGent-62/2020|EPI_ISL_451173|2020-04-05|Europe,2020.25956284153,NA,NA,NA
hCoV-19/Belgium/UGent-65/2020|EPI_ISL_451176|2020-04-08|Europe,2020.26775956284,NA,NA,NA
hCoV-19/Belgium/LHL-0329389/2020|EPI_ISL_462243|2020-03-29,2020.24043715847,3920,714002.523700054,708246.38327216
hCoV-19/Belgium/Rega-0329241/2020|EPI_ISL_458211|2020-03-29|Europe,2020.24043715847,3550,713593.946110544,687781.212560643
hCoV-19/Belgium/PC-0325182/2020|EPI_ISL_420439|2020-03-25|Europe,2020.22950819672,7390,613019.398295684,625992.572211653
hCoV-19/Belgium/PC-0325147/2020|EPI_ISL_420404|2020-03-25|Europe,2020.22950819672,7390,615237.54801179,623998.357397737
hCoV-19/Belgium/AM-0328342/2020|EPI_ISL_462196|2020-03-28,2020.23770491803,3600,728284.151931804,683007.9389074
hCoV-19/Belgium/Rega-0328188/2020|EPI_ISL_458158|2020-03-28|Europe,2020.23770491803,3450,703024.063070668,678829.211488176
hCoV-19/Belgium/MAC-0324142/2020|EPI_ISL_420399|2020-03-24|Europe,2020.22677595628,3440,701146.068975903,671495.660632485
hCoV-19/Belgium/SEM-0324120/2020|EPI_ISL_420377|2020-03-24|Europe,2020.22677595628,3583,706836.77271561,692945.255612476
hCoV-19/Belgium/Rega-0330249/2020|EPI_ISL_458219|2020-03-30|Europe,2020.24316939891,3300,687757.756780568,664873.429676401
hCoV-19/Belgium/VAM-0506416/2020|EPI_ISL_462270|2020-05-06,2020.34426229508,7870,620044.647210882,643570.981969667
hCoV-19/Belgium/HNF-0507417/2020|EPI_ISL_462271|2020-05-07,2020.34699453552,2290,676737.924068127,713622.320494308
hCoV-19/Belgium/VPMV-0325153/2020|EPI_ISL_420410|2020-03-25|Europe,2020.22950819672,3040,666531.370769698,665395.434728807
hCoV-19/Belgium/ULG-10131/2020|EPI_ISL_427376|2020-04-07|Europe,2020.2650273224,4130,734954.947753286,638529.118285391
hCoV-19/Belgium/ULG-10027/2020|EPI_ISL_421201|2020-03-31|Europe,2020.24590163934,4121,728640.609667553,638198.781617078
hCoV-19/Belgium/MR-0327344/2020|EPI_ISL_462198|2020-03-27,2020.2349726776,3630,741087.076445332,683292.139467294
hCoV-19/Belgium/Rega-0331264/2020|EPI_ISL_458234|2020-03-31|Europe,2020.24590163934,3000,673925.256808772,673550.112533237
hCoV-19/Belgium/Rega-0319259/2020|EPI_ISL_458229|2020-03-19|Europe,2020.2131147541,3270,691937.101705857,685587.890600516
hCoV-19/Belgium/ML-0324164/2020|EPI_ISL_420421|2020-03-24|Europe,2020.22677595628,3440,699456.307598465,672297.946764224
hCoV-19/Belgium/NIM-0324161/2020|EPI_ISL_420418|2020-03-24|Europe,2020.22677595628,3850,707908.251721243,675330.078510923
hCoV-19/Belgium/LJ-0325148/2020|EPI_ISL_420405|2020-03-25|Europe,2020.22950819672,3800,713175.864401236,670332.212369075
hCoV-19/Belgium/GM-0407395/2020|EPI_ISL_462249|2020-04-07,2020.2650273224,3510,712383.610202482,680690.094407049
hCoV-19/Belgium/Rega-0329233/2020|EPI_ISL_458203|2020-03-29|Europe,2020.24043715847,3012,674048.288084577,678816.555943034
hCoV-19/Belgium/DWAEE-030954/2020|EPI_ISL_418983|2020-03-09|Europe,2020.18579234973,1730,641698.743959391,677464.311218676
hCoV-19/Belgium/LMA-0330384/2020|EPI_ISL_462238|2020-03-30,2020.24316939891,9030,601701.552730935,694703.865901936
hCoV-19/Belgium/VI-03027/2020|EPI_ISL_417427|2020-03-02|Europe,2020.16666666667,1150,656367.219321547,669498.232466997
hCoV-19/Belgium/VS-030542/2020|EPI_ISL_418863|2020-03-05|Europe,2020.17486338798,7780,552941.718543056,664891.334489344
hCoV-19/Belgium/LJA-0401368/2020|EPI_ISL_462222|2020-04-01,2020.24863387978,8647,540277.968097656,683644.46254889
hCoV-19/Belgium/Rega-0330256/2020|EPI_ISL_458226|2020-03-30|Europe,2020.24316939891,3010,675178.649483298,674223.124932669
hCoV-19/Belgium/BN-0330347/2020|EPI_ISL_462201|2020-03-30,2020.24316939891,8820,560074.436261002,696859.198987599
hCoV-19/Belgium/OTG-0401375/2020|EPI_ISL_462229|2020-04-01,2020.24863387978,8530,575565.669120848,671723.202423013
hCoV-19/Belgium/ULG-6216/2020|EPI_ISL_417014|2020-03-13|Europe,2020.19672131148,4671,743895.656734807,652304.322073991
hCoV-19/Belgium/WWM-030665/2020|EPI_ISL_420321|2020-03-06|Europe,2020.17759562842,1330,661503.636912564,655337.056093603
hCoV-19/Belgium/DAL-030650/2020|EPI_ISL_420446|2020-03-06|Europe,2020.17759562842,8780,577776.81527814,679336.874000517
hCoV-19/Belgium/MF-030546/2020|EPI_ISL_420444|2020-03-05|Europe,2020.17486338798,3620,737922.109823575,676336.009190802
hCoV-19/Belgium/RJ-030552/2020|EPI_ISL_420317|2020-03-05|Europe,2020.17486338798,3001,672826.428091362,672644.611539094
hCoV-19/Belgium/BS-030598/2020|EPI_ISL_420354|2020-03-05|Europe,2020.17486338798,9250,628994.030077121,700957.245824401
hCoV-19/Belgium/GSA-030454/2020|EPI_ISL_420448|2020-03-04|Europe,2020.17213114754,3210,683965.72453822,674402.645792525
hCoV-19/Belgium/NL-030447/2020|EPI_ISL_420314|2020-03-04|Europe,2020.17213114754,1000,649225.626901861,671307.97389137
hCoV-19/Belgium/JL-03044/2020|EPI_ISL_418270|2020-03-04|Europe,2020.17213114754,2000,652363.633883721,712007.725433224
hCoV-19/Belgium/MTR-03021/2020|EPI_ISL_416467|2020-03-02|Europe,2020.16666666667,3220,678039.439554745,678550.771589925
hCoV-19/Belgium/MTR-03026/2020|EPI_ISL_416476|2020-03-02|Europe,2020.16666666667,3220,677208.712792136,677776.11904781
hCoV-19/Belgium/VJP-030463/2020|EPI_ISL_420454|2020-03-04|Europe,2020.17213114754,2820,664271.582748244,688354.186052489
hCoV-19/Belgium/SQ-03043/2020|EPI_ISL_417426|2020-03-04|Europe,2020.17213114754,3000,672915.22877309,675465.563468997
hCoV-19/Belgium/VF-030562/2020|EPI_ISL_420453|2020-03-05|Europe,2020.17486338798,8560,563833.099373074,666161.169674297
hCoV-19/Belgium/GMH-03022/2020|EPI_ISL_416468|2020-03-02|Europe,2020.16666666667,3220,677238.603472171,678359.031476856
hCoV-19/Belgium/HHC-0401376/2020|EPI_ISL_462230|2020-04-01,2020.24863387978,8580,586074.559845512,663430.936505801
hCoV-19/Belgium/MMJ-03034/2020|EPI_ISL_417429|2020-03-03|Europe,2020.1693989071,3220,679573.012022945,680511.279479155
hCoV-19/Belgium/DBA-03032/2020|EPI_ISL_416475|2020-03-03|Europe,2020.1693989071,3000,673357.346335079,674293.431027992
hCoV-19/Belgium/VME-0327346/2020|EPI_ISL_462200|2020-03-27,2020.2349726776,8750,573220.898079226,696515.754216549
hCoV-19/Belgium/Rega-0328201/2020|EPI_ISL_458171|2020-03-28|Europe,2020.23770491803,3550,716386.545520152,689667.776473954
hCoV-19/Belgium/HCM-0324151/2020|EPI_ISL_420408|2020-03-24|Europe,2020.22677595628,1420,646144.848998423,655570.10906247
hCoV-19/Belgium/Rega-0327210/2020|EPI_ISL_458180|2020-03-27|Europe,2020.2349726776,1090,645904.794636629,674835.411843079
hCoV-19/Belgium/RIM-0407393/2020|EPI_ISL_462247|2020-04-07,2020.2650273224,3500,718546.344088005,678620.926372382
hCoV-19/Belgium/GJJ-0325145/2020|EPI_ISL_420402|2020-03-25|Europe,2020.22950819672,3550,714595.046724227,688781.918508968
hCoV-19/Belgium/Rega-0327215/2020|EPI_ISL_458185|2020-03-27|Europe,2020.2349726776,2610,653154.362862395,705944.400956662
hCoV-19/Belgium/JFA-0407396/2020|EPI_ISL_462250|2020-04-07,2020.2650273224,3290,697041.776075057,682595.534342845
hCoV-19/Belgium/ULG-10173/2020|EPI_ISL_455961|2020-5-8|Europe,2020.34972677596,6997,736946.205182318,606586.245143568
hCoV-19/Belgium/Rega-0328208/2020|EPI_ISL_458178|2020-03-28|Europe,2020.23770491803,1040,651409.769727301,669673.917228593
hCoV-19/Belgium/20A47/2020|EPI_ISL_452150|2020-04-10|Europe,2020.27322404372,NA,NA,NA
hCoV-19/Belgium/RJ-0507419/2020|EPI_ISL_462273|2020-05-07,2020.34699453552,2360,697546.089554871,721239.067605563
hCoV-19/Belgium/VLS-0507418/2020|EPI_ISL_462272|2020-05-07,2020.34699453552,2300,690361.694103449,729797.294061024
hCoV-19/Belgium/VWJM-0324136/2020|EPI_ISL_420393|2020-03-24|Europe,2020.22677595628,3360,681354.262383147,665979.024206034
hCoV-19/Belgium/VT-0325143/2020|EPI_ISL_420400|2020-03-25|Europe,2020.22950819672,3560,707430.466092694,688590.870763747
hCoV-19/Belgium/Rega-0330252/2020|EPI_ISL_458222|2020-03-30|Europe,2020.24316939891,3220,680846.025079858,680306.232734784
hCoV-19/Belgium/BS-0331359/2020|EPI_ISL_462213|2020-03-31,2020.24590163934,5170,682213.562829808,621679.314788925
hCoV-19/Belgium/20A42/2020|EPI_ISL_452140|2020-04-03|Europe,2020.25409836066,NA,NA,NA
hCoV-19/Belgium/SP-0407397/2020|EPI_ISL_462251|2020-04-07,2020.2650273224,3520,723258.186533308,685536.311939326
hCoV-19/Belgium/SG-0507420/2020|EPI_ISL_462274|2020-05-07,2020.34699453552,2380,695957.974724877,729884.608097628
hCoV-19/Belgium/BM-030687/2020|EPI_ISL_420343|2020-03-06|Europe,2020.17759562842,5300,699065.242487917,635626.433788312
hCoV-19/Belgium/ULG-6948/2020|EPI_ISL_417022|2020-03-15|Europe,2020.20218579235,4020,735704.695639837,647332.894833078
hCoV-19/Belgium/ULG-6942/2020|EPI_ISL_417021|2020-03-15|Europe,2020.20218579235,4000,734913.249354646,647766.903135688
hCoV-19/Belgium/ULG-6950/2020|EPI_ISL_417023|2020-03-15|Europe,2020.20218579235,4020,740387.940139098,651015.821992468
hCoV-19/Belgium/ULG-7242/2020|EPI_ISL_418626|2020-03-16|Europe,2020.20491803279,4053,738517.168412855,643752.427119752
hCoV-19/Belgium/ULG-10061/2020|EPI_ISL_424662|2020-04-05|Europe,2020.25956284153,4430,732828.600978045,649913.523027336
hCoV-19/Belgium/ULG-10018/2020|EPI_ISL_421196|2020-03-30|Europe,2020.24316939891,4420,731988.889200258,646343.310223228
hCoV-19/Belgium/Rega-0329242/2020|EPI_ISL_458212|2020-03-29|Europe,2020.24043715847,5031,676596.117641259,640373.15988014
hCoV-19/Belgium/UGent-28/2020|EPI_ISL_434347|2020-03-26|Europe,2020.23224043716,NA,NA,NA
hCoV-19/Belgium/LD-030597/2020|EPI_ISL_420353|2020-03-05|Europe,2020.17486338798,9190,626980.945045463,710451.810422659
hCoV-19/Belgium/VMC-030695/2020|EPI_ISL_420351|2020-03-06|Europe,2020.17759562842,9000,603957.915186852,692148.534557037
hCoV-19/Belgium/RA-030664/2020|EPI_ISL_420441|2020-03-06|Europe,2020.17759562842,1640,650110.569184478,657048.660131604
hCoV-19/Belgium/DNS-0324176/2020|EPI_ISL_420433|2020-03-24|Europe,2020.22677595628,6140,647439.716586241,623056.070154315
hCoV-19/Belgium/VGM-0402374/2020|EPI_ISL_462228|2020-04-02,2020.25136612022,8908,540607.406813484,670735.620756515
hCoV-19/Belgium/LAM-0325339/2020|EPI_ISL_462193|2020-03-25,2020.22950819672,8370,565172.207501105,724727.837231005
hCoV-19/Belgium/VAJ-0328370/2020|EPI_ISL_462224|2020-03-28,2020.23770491803,9700,594307.464236937,667956.911238631
hCoV-19/Belgium/ULG-10044/2020|EPI_ISL_421211|2020-03-31|Europe,2020.24590163934,4550,724497.688236032,635009.503655984
hCoV-19/Belgium/ULG-3843/2020|EPI_ISL_417012|2020-03-08|Europe,2020.18306010929,4041,737237.606517358,653254.317343162
hCoV-19/Belgium/ULG-10068/2020|EPI_ISL_424636|2020-04-03|Europe,2020.25409836066,4020,740054.132644002,651044.150579737
hCoV-19/Belgium/RS-030677/2020|EPI_ISL_420333|2020-03-06|Europe,2020.17759562842,4100,729838.658272942,642347.447131056
hCoV-19/Belgium/ULG-2971/2020|EPI_ISL_416997|2020-03-05|Europe,2020.17486338798,4630,748321.670461298,644609.987120652
hCoV-19/Belgium/GJ-030458/2020|EPI_ISL_420319|2020-03-04|Europe,2020.17213114754,6110,650730.970837039,616497.467929696
hCoV-19/Belgium/RYR-030649/2020|EPI_ISL_420315|2020-03-06|Europe,2020.17759562842,4550,724432.133961774,634552.343793883
hCoV-19/Belgium/MJP-030684/2020|EPI_ISL_420340|2020-03-06|Europe,2020.17759562842,4841,762806.86975201,655010.755787554
hCoV-19/Belgium/RC-0324168/2020|EPI_ISL_420425|2020-03-24|Europe,2020.22677595628,6110,651407.400855015,618121.097215688
hCoV-19/Belgium/VRS-0320308/2020|EPI_ISL_462162|2020-03-20,2020.21584699454,2310,676273.838018777,725425.79318517
hCoV-19/Belgium/LL-0331377/2020|EPI_ISL_462231|2020-03-31,2020.24590163934,2930,661630.799342187,725220.47612821
hCoV-19/Belgium/REGA-0325402/2020|EPI_ISL_462256|2020-03-25,2020.22950819672,6250,663719.991707072,619268.144389093
hCoV-19/Belgium/VEH-0329352/2020|EPI_ISL_462206|2020-03-29,2020.24043715847,2560,671153.430006896,705794.380882685
hCoV-19/Belgium/ITM_C338/2020|EPI_ISL_450734|2020-04-06|Europe,2020.26229508197,NA,NA,NA
hCoV-19/Belgium/TA-0330358/2020|EPI_ISL_462212|2020-03-30,2020.24316939891,2560,667954.942566759,702452.827728692
hCoV-19/Belgium/ULG-10101/2020|EPI_ISL_427352|2020-04-06|Europe,2020.26229508197,4130,737358.121272238,638839.13732636
hCoV-19/Belgium/ULG-10045/2020|EPI_ISL_421212|2020-03-31|Europe,2020.24590163934,4651,751189.117838704,648095.480354975
hCoV-19/Belgium/FMC-0323159/2020|EPI_ISL_420416|2020-03-23|Europe,2020.22404371585,1380,654531.150350743,653766.978241712
hCoV-19/Belgium/BEG-0323154/2020|EPI_ISL_420411|2020-03-23|Europe,2020.22404371585,1480,633763.770828808,656679.730805332
hCoV-19/Belgium/FR-03029/2020|EPI_ISL_417428|2020-03-02|Europe,2020.16666666667,1330,660893.626531648,655089.839549474
hCoV-19/Belgium/ULG-10046/2020|EPI_ISL_421213|2020-03-31|Europe,2020.24590163934,4630,747581.662867766,647579.656129256
hCoV-19/Belgium/VBK-03061/2020|EPI_ISL_417425|2020-03-06|Europe,2020.17759562842,2900,660336.156719002,715656.606530987
hCoV-19/Belgium/VGA-030672/2020|EPI_ISL_420328|2020-03-06|Europe,2020.17759562842,3570,716467.271177207,675084.082694924
hCoV-19/Belgium/KN-030756/2020|EPI_ISL_420450|2020-03-07|Europe,2020.18032786885,1082,644149.894773617,672207.313993045
hCoV-19/Belgium/TG-030757/2020|EPI_ISL_420318|2020-03-07|Europe,2020.18032786885,5170,686321.897726548,619798.395502091
hCoV-19/Belgium/BJ-030767/2020|EPI_ISL_420323|2020-03-07|Europe,2020.18032786885,1410,651442.386248683,655293.025102448
hCoV-19/Belgium/ULG-10025/2020|EPI_ISL_421199|2020-03-31|Europe,2020.24590163934,4870,747595.858961983,638883.67159005
hCoV-19/Belgium/ULG-10175/2020|EPI_ISL_455963|2020-5-8|Europe,2020.34972677596,4032,738699.756681159,646122.148917609
hCoV-19/Belgium/ULG-10191/2020|EPI_ISL_455979|2020-5-11|Europe,2020.35792349727,4130,736059.225409453,638903.952325323
hCoV-19/Belgium/DHWM-03041/2020|EPI_ISL_417422|2020-03-04|Europe,2020.17213114754,1700,641385.368984437,672104.233962447
hCoV-19/Belgium/ULG-10135/2020|EPI_ISL_427380|2020-04-08|Europe,2020.26775956284,4400,725116.33333033,643252.086697618
hCoV-19/Belgium/ULG-10109/2020|EPI_ISL_427360|2020-04-07|Europe,2020.2650273224,4400,727860.449814222,646517.548914283
hCoV-19/Belgium/ULG-10066/2020|EPI_ISL_424629|2020-04-03|Europe,2020.25409836066,4850,763320.549420584,656114.964472599
hCoV-19/Belgium/ULG-10067/2020|EPI_ISL_424630|2020-04-03|Europe,2020.25409836066,4910,749969.589948687,633864.691063314
hCoV-19/Belgium/ULG-10171/2020|EPI_ISL_455959|2020-5-11|Europe,2020.35792349727,4400,726937.147777038,642031.127990486
hCoV-19/Belgium/ULG-10144/2020|EPI_ISL_427388|2020-04-07|Europe,2020.2650273224,4850,759711.632050345,653819.437326677
hCoV-19/Belgium/ULG-10042/2020|EPI_ISL_421209|2020-03-31|Europe,2020.24590163934,4100,730085.35394291,642615.331713805
hCoV-19/Belgium/ULG-6457/2020|EPI_ISL_417015|2020-03-13|Europe,2020.19672131148,4040,737410.607864571,654254.397301449
hCoV-19/Belgium/ULG-9634/2020|EPI_ISL_418651|2020-03-22|Europe,2020.22131147541,4100,730155.996941926,639597.5345639
hCoV-19/Belgium/ULG-9741/2020|EPI_ISL_418664|2020-03-22|Europe,2020.22131147541,4000,734138.13737403,651762.810171647
hCoV-19/Belgium/ULG-9735/2020|EPI_ISL_418661|2020-03-22|Europe,2020.22131147541,4250,705962.666381435,649589.587357881
hCoV-19/Belgium/ULG-10024/2020|EPI_ISL_421198|2020-03-30|Europe,2020.24316939891,4160,732397.810827023,630878.069547818
hCoV-19/Belgium/ULG-10050/2020|EPI_ISL_424659|2020-04-05|Europe,2020.25956284153,1050,652299.518075062,667781.602412771
hCoV-19/Belgium/ULG-10029/2020|EPI_ISL_421203|2020-03-30|Europe,2020.24316939891,4800,753366.429856276,642930.07095656
hCoV-19/Belgium/Rega-0329238/2020|EPI_ISL_458208|2020-03-29|Europe,2020.24043715847,1050,651862.507021245,668315.201164561
hCoV-19/Belgium/Rega-0328198/2020|EPI_ISL_458168|2020-03-28|Europe,2020.23770491803,1420,648364.64625775,653299.338848571
hCoV-19/Belgium/RGE-0325122/2020|EPI_ISL_420379|2020-03-25|Europe,2020.22950819672,3300,692195.017389966,663586.02719513
hCoV-19/Belgium/ULG-10104/2020|EPI_ISL_427355|2020-04-06|Europe,2020.26229508197,4000,733360.613231144,652633.179889799
hCoV-19/Belgium/NMA-0324169/2020|EPI_ISL_420426|2020-03-24|Europe,2020.22677595628,1380,656261.374516313,656162.956161554
hCoV-19/Belgium/ULG-10151/2020|EPI_ISL_447148|2020-04-18|Europe,2020.29508196721,4520,706501.787212927,641093.68875782
hCoV-19/Belgium/ULG-10180/2020|EPI_ISL_455968|2020-5-9|Europe,2020.35245901639,4432,730017.484190977,656744.256591451
hCoV-19/Belgium/ULG-10179/2020|EPI_ISL_455967|2020-5-9|Europe,2020.35245901639,4430,731285.218641145,651030.336508111
hCoV-19/Belgium/ULG-10170/2020|EPI_ISL_455958|2020-5-11|Europe,2020.35792349727,4120,727274.72093111,636387.802382738
hCoV-19/Belgium/ULG-10174/2020|EPI_ISL_455962|2020-5-8|Europe,2020.34972677596,4610,741093.203564466,649574.075933813
hCoV-19/Belgium/030959/2020|EPI_ISL_420320|2020-03-09|Europe,2020.18579234973,1180,648885.664838615,664206.078318526
hCoV-19/Belgium/BC-03016/2020|EPI_ISL_415157|2020-03-01|Europe,2020.16393442623,9100,634354.209874728,705256.490923788
hCoV-19/Belgium/DJ-030452/2020|EPI_ISL_420447|2020-03-04|Europe,2020.17213114754,9200,627506.130808858,691656.008188539
hCoV-19/Belgium/LM-030685/2020|EPI_ISL_420341|2020-03-06|Europe,2020.17759562842,4910,753661.971229135,635179.80583113
hCoV-19/Belgium/WAM-030676/2020|EPI_ISL_420332|2020-03-06|Europe,2020.17759562842,4040,737989.699884083,651717.883791085
hCoV-19/Belgium/CD-030679/2020|EPI_ISL_420335|2020-03-06|Europe,2020.17759562842,4460,723753.240422477,648319.176826482
hCoV-19/Belgium/PA-030680/2020|EPI_ISL_420336|2020-03-06|Europe,2020.17759562842,4630,747312.713222963,646370.745500357
hCoV-19/Belgium/ULG-10114/2020|EPI_ISL_427363|2020-04-07|Europe,2020.2650273224,4031,734802.165039456,643681.771093551
hCoV-19/Belgium/DCS-030796/2020|EPI_ISL_420352|2020-03-07|Europe,2020.18032786885,9170,634858.304673149,719265.744756565
hCoV-19/Belgium/ULG-10167/2020|EPI_ISL_447161|2020-04-19|Europe,2020.29781420765,4910,756973.545484039,635374.293562705
hCoV-19/Belgium/QOJ-030751/2020|EPI_ISL_420316|2020-03-07|Europe,2020.18032786885,1700,638341.588283139,675107.217392759
hCoV-19/Belgium/ULG-8543/2020|EPI_ISL_418637|2020-03-19|Europe,2020.2131147541,4160,732039.610512537,631648.382785821
hCoV-19/Belgium/ULG-10013/2020|EPI_ISL_421191|2020-03-30|Europe,2020.24316939891,4140,738654.264028761,631943.641863436
hCoV-19/Belgium/ULG-10014/2020|EPI_ISL_421192|2020-03-30|Europe,2020.24316939891,4610,741612.25490094,647639.102205675
hCoV-19/Belgium/ULG-10019/2020|EPI_ISL_427340|2020-03-31|Europe,2020.24590163934,4610,740333.145859531,645326.548071377
hCoV-19/Belgium/ULG-10082/2020|EPI_ISL_424649|2020-04-04|Europe,2020.25683060109,4101,729646.234454007,645799.378063769
hCoV-19/Belgium/ULG-10093/2020|EPI_ISL_424648|2020-04-04|Europe,2020.25683060109,4610,740310.727939849,647168.783827991
hCoV-19/Belgium/ULG-10102/2020|EPI_ISL_427353|2020-04-06|Europe,2020.26229508197,4102,732685.852121126,644563.196729722
hCoV-19/Belgium/ULG-3000/2020|EPI_ISL_417004|2020-03-05|Europe,2020.17486338798,4630,747519.353380428,645108.706499476
hCoV-19/Belgium/PAN-030681/2020|EPI_ISL_420337|2020-03-05|Europe,2020.17486338798,4651,749643.37131055,651729.57933524
hCoV-19/Belgium/RJL-030588/2020|EPI_ISL_420344|2020-03-05|Europe,2020.17486338798,5370,715689.948299712,617795.612772019
hCoV-19/Belgium/ULG-0190/2020|EPI_ISL_447130|2020-03-23|Europe,2020.22404371585,4700,772673.836615994,644779.212198455
hCoV-19/Belgium/ULG-0186/2020|EPI_ISL_447128|2020-03-23|Europe,2020.22404371585,4700,774279.259344983,644554.934355184
hCoV-19/Belgium/Rega-0328187/2020|EPI_ISL_458157|2020-03-28|Europe,2020.23770491803,1933,658685.886042831,672468.256219874
hCoV-19/Belgium/ULG-9714/2020|EPI_ISL_418655|2020-03-22|Europe,2020.22131147541,4550,722361.108311289,634679.799813876
hCoV-19/Belgium/ULG-9742/2020|EPI_ISL_418665|2020-03-22|Europe,2020.22131147541,4100,731562.692350526,643316.066184674
hCoV-19/Belgium/ULG-10037/2020|EPI_ISL_427345|2020-03-30|Europe,2020.24316939891,4170,737540.588101067,629419.305030932
hCoV-19/Belgium/ULG-10072/2020|EPI_ISL_424631|2020-04-03|Europe,2020.25409836066,4400,727117.335299497,643013.658330215
hCoV-19/Belgium/ULG-10057/2020|EPI_ISL_424654|2020-04-05|Europe,2020.25956284153,4357,721042.168528877,649441.150315674
hCoV-19/Belgium/PF-0326316/2020|EPI_ISL_462170|2020-03-26,2020.23224043716,1332,658291.815122522,656455.064203771
hCoV-19/Belgium/MSE-0324131/2020|EPI_ISL_420388|2020-03-24|Europe,2020.22677595628,1800,656960.442588086,681254.217229061
hCoV-19/Belgium/Rega-0327216/2020|EPI_ISL_458186|2020-03-27|Europe,2020.2349726776,7041,626675.491990747,620318.007260909
hCoV-19/Belgium/FFJ-0324124/2020|EPI_ISL_420381|2020-03-24|Europe,2020.22677595628,7061,622402.153696208,633529.976053331
hCoV-19/Belgium/GL-030546/2020|EPI_ISL_418792|2020-03-05|Europe,2020.17486338798,3530,728682.290451365,691662.022734166
hCoV-19/Belgium/UGent-40/2020|EPI_ISL_434357|2020-03-27|Europe,2020.2349726776,NA,NA,NA
hCoV-19/Belgium/ITM_C262/2020|EPI_ISL_434369|2020-04-02|Europe,2020.25136612022,NA,NA,NA
hCoV-19/Belgium/HL-030771/2020|EPI_ISL_420327|2020-03-07|Europe,2020.18032786885,3520,719304.439016901,688122.264827738
hCoV-19/Belgium/SS-031047/2020|EPI_ISL_418793|2020-03-10|Europe,2020.18852459016,3520,723135.757876948,687655.736223453
hCoV-19/Belgium/BWM-0311356/2020|EPI_ISL_462210|2020-03-11,2020.1912568306,2470,699621.774858106,718879.914226024
hCoV-19/Belgium/UGent-33/2020|EPI_ISL_434351|2020-03-28|Europe,2020.23770491803,NA,NA,NA
hCoV-19/Belgium/UGent-64/2020|EPI_ISL_451175|2020-04-07|Europe,2020.2650273224,NA,NA,NA
hCoV-19/Belgium/UGent-71/2020|EPI_ISL_451182|2020-04-15|Europe,2020.2868852459,NA,NA,NA
hCoV-19/Belgium/ULG-10063/2020|EPI_ISL_424665|2020-04-05|Europe,2020.25956284153,4400,728317.026644858,643750.593209959
hCoV-19/Belgium/ULG-10107/2020|EPI_ISL_427358|2020-04-06|Europe,2020.26229508197,4100,729251.215846753,643327.630329213
hCoV-19/Belgium/ULG-10108/2020|EPI_ISL_427359|2020-04-06|Europe,2020.26229508197,4100,731687.37187844,645516.235236805
hCoV-19/Belgium/ULG-10031/2020|EPI_ISL_421205|2020-03-31|Europe,2020.24590163934,4831,759302.387536514,647198.521708139
hCoV-19/Belgium/ULG-8634/2020|EPI_ISL_418640|2020-03-19|Europe,2020.2131147541,4101,729584.330666394,646029.954772235
hCoV-19/Belgium/ULG-10156/2020|EPI_ISL_447152|2020-04-18|Europe,2020.29508196721,4680,739441.68047054,657177.804850128
hCoV-19/Belgium/ULG-10155/2020|EPI_ISL_447151|2020-04-18|Europe,2020.29508196721,4680,737463.357327077,657625.791460311
hCoV-19/Belgium/MS-0324134/2020|EPI_ISL_420391|2020-03-24|Europe,2020.22677595628,7390,613568.505266918,624550.376049686
hCoV-19/Belgium/VNM-0406400/2020|EPI_ISL_462254|2020-04-06,2020.26229508197,9220,636142.40803124,695191.661136452
hCoV-19/Belgium/ITM_C233/2020|EPI_ISL_434371|2020-04-01|Europe,2020.24863387978,NA,NA,NA
hCoV-19/Belgium/Rega-0329245/2020|EPI_ISL_458215|2020-03-29|Europe,2020.24043715847,7140,639647.785518407,627141.127656547
hCoV-19/Belgium/QL-0324173/2020|EPI_ISL_420430|2020-03-24|Europe,2020.22677595628,7033,618275.347451024,623565.757509158
hCoV-19/Belgium/DC-0326350/2020|EPI_ISL_462204|2020-03-26,2020.23224043716,8600,546353.929631301,689635.695295885
hCoV-19/Belgium/VRAR-030643/2020|EPI_ISL_418981|2020-03-06|Europe,2020.17759562842,9820,603125.141395772,682833.746444289
hCoV-19/Belgium/SH-03014/2020|EPI_ISL_415156|2020-03-01|Europe,2020.16393442623,3040,668047.48461157,659618.879475316
hCoV-19/Belgium/SB-030990/2020|EPI_ISL_420346|2020-03-09|Europe,2020.18579234973,6040,657770.161281162,625708.825314091
hCoV-19/Belgium/RT-030460/2020|EPI_ISL_418989|2020-03-04|Europe,2020.17213114754,1190,646866.917841953,667526.126759626
hCoV-19/Belgium/RT-03035/2020|EPI_ISL_417430|2020-03-03|Europe,2020.1693989071,1190,646956.673968358,666564.768961078
hCoV-19/Belgium/JRH-030459/2020|EPI_ISL_418988|2020-03-04|Europe,2020.17213114754,3550,717415.353425319,692990.992405292
hCoV-19/Belgium/Rega-0327211/2020|EPI_ISL_458181|2020-03-27|Europe,2020.2349726776,3294,696621.125853194,687723.366725538
hCoV-19/Belgium/GQL-0328309/2020|EPI_ISL_462163|2020-03-28,2020.23770491803,5590,698751.296480544,612142.25432486
hCoV-19/Belgium/VPP-0331379/2020|EPI_ISL_462233|2020-03-31,2020.24590163934,2930,659415.276596065,721835.057577722
hCoV-19/Belgium/GC-0328313/2020|EPI_ISL_462167|2020-03-28,2020.23770491803,7134,637986.982877544,625064.77478578
hCoV-19/Belgium/ITM_C237/2020|EPI_ISL_450732|2020-04-01|Europe,2020.24863387978,NA,NA,NA
hCoV-19/Belgium/UGent-59/2020|EPI_ISL_451170|2020-04-05|Europe,2020.25956284153,NA,NA,NA
hCoV-19/Belgium/DA-0319106/2020|EPI_ISL_420362|2020-03-18|Europe,2020.21038251366,7040,620604.532346784,621462.01417369
hCoV-19/Belgium/DRR-0401366/2020|EPI_ISL_462220|2020-04-01,2020.24863387978,7782,545440.536995205,657539.412963268
hCoV-19/Belgium/CJE-0325178/2020|EPI_ISL_420435|2020-03-25|Europe,2020.22950819672,7340,612004.203828413,623949.589230053
hCoV-19/Belgium/ULG-10071/2020|EPI_ISL_424632|2020-04-03|Europe,2020.25409836066,4190,738324.736095045,625143.991150846
hCoV-19/Belgium/UGent-22/2020|EPI_ISL_425062|2020-03-24|Europe,2020.22677595628,NA,NA,NA
hCoV-19/Belgium/DCB-0324163/2020|EPI_ISL_420420|2020-03-24|Europe,2020.22677595628,6141,646915.571713831,623431.798995666
hCoV-19/Belgium/RM-0330304/2020|EPI_ISL_462158|2020-03-30,2020.24316939891,2460,687773.402143311,719113.687547073
hCoV-19/Belgium/Rega-0329239/2020|EPI_ISL_458209|2020-03-29|Europe,2020.24043715847,3370,681385.947131664,670785.901043594
hCoV-19/Belgium/ULG-10084/2020|EPI_ISL_424638|2020-04-03|Europe,2020.25409836066,4030,737987.333251656,647304.975123657
hCoV-19/Belgium/ULG-10189/2020|EPI_ISL_455977|2020-5-11|Europe,2020.35792349727,4845,764832.263624172,640928.066433599
hCoV-19/Belgium/ULG-8664/2020|EPI_ISL_418641|2020-03-19|Europe,2020.2131147541,4000,735671.368853717,649481.294448146
hCoV-19/Belgium/ULG-10157/2020|EPI_ISL_447142|2020-04-18|Europe,2020.29508196721,4122,732987.724961974,639255.801093339
hCoV-19/Belgium/ULG-10161/2020|EPI_ISL_447143|2020-04-18|Europe,2020.29508196721,4122,731005.952128491,638396.861357709
hCoV-19/Belgium/ULG-10015/2020|EPI_ISL_421193|2020-03-31|Europe,2020.24590163934,4020,741152.8050435,651194.930877229
hCoV-19/Belgium/UGent-49/2020|EPI_ISL_434365|2020-03-30|Europe,2020.24316939891,NA,NA,NA
hCoV-19/Belgium/DPR-0406398/2020|EPI_ISL_462252|2020-04-06,2020.26229508197,2890,638265.019344676,693822.45838987
hCoV-19/Belgium/ITM_C305/2020|EPI_ISL_434370|2020-04-05|Europe,2020.25956284153,NA,NA,NA
hCoV-19/Belgium/VBMJ-0401430/2020|EPI_ISL_462225|2020-04-01,2020.24863387978,2830,651073.482081308,696616.909394222
hCoV-19/Belgium/ITM_C451/2020|EPI_ISL_434377|2020-04-12|Europe,2020.27868852459,NA,NA,NA
hCoV-19/Belgium/VJB-0327317/2020|EPI_ISL_462171|2020-03-27,2020.2349726776,8970,531155.447579934,672817.010518605
hCoV-19/Belgium/ITM_C366/2020|EPI_ISL_434374|2020-04-08|Europe,2020.26775956284,NA,NA,NA
hCoV-19/Belgium/ITM_C359/2020|EPI_ISL_450735|2020-04-07|Europe,2020.2650273224,NA,NA,NA
hCoV-19/Belgium/ITM_C053/2020|EPI_ISL_434372|2020-03-26|Europe,2020.23224043716,NA,NA,NA
hCoV-19/Belgium/ITM_C152/2020|EPI_ISL_450727|2020-03-28|Europe,2020.23770491803,NA,NA,NA
hCoV-19/Belgium/ITM_C161/2020|EPI_ISL_450728|2020-03-29|Europe,2020.24043715847,NA,NA,NA
hCoV-19/Belgium/ITM_C189/2020|EPI_ISL_434366|2020-03-30|Europe,2020.24316939891,NA,NA,NA
hCoV-19/Belgium/VRMJ-0401372/2020|EPI_ISL_462226|2020-04-01,2020.24863387978,2870,645601.969002141,695417.485869444
hCoV-19/Belgium/FM-0408414/2020|EPI_ISL_462268|2020-04-08,2020.26775956284,9150,645378.256369105,708792.81852146
hCoV-19/Belgium/ULG-10124/2020|EPI_ISL_427371|2020-04-07|Europe,2020.2650273224,4701,770325.356675516,650276.132613036
hCoV-19/Belgium/SC-0319113/2020|EPI_ISL_420370|2020-03-19|Europe,2020.2131147541,5000,685295.605196787,629654.979876786
hCoV-19/Belgium/WCV-0408399/2020|EPI_ISL_462253|2020-04-08,2020.26775956284,9255,635620.29118798,690130.823275895
hCoV-19/Belgium/UGent-39/2020|EPI_ISL_434356|2020-03-27|Europe,2020.2349726776,NA,NA,NA
hCoV-19/Belgium/ULG-7773/2020|EPI_ISL_418629|2020-03-17|Europe,2020.20765027322,4190,735584.286788481,623327.766138828
hCoV-19/Belgium/JK-0305110/2020|EPI_ISL_420367|2020-03-05|Europe,2020.17486338798,8300,579278.885363219,728600.838746001
hCoV-19/Belgium/VDLH-030548/2020|EPI_ISL_418797|2020-03-05|Europe,2020.17486338798,2920,656141.3669458,730745.262807492
hCoV-19/Belgium/VDLH-030548/2020|EPI_ISL_418796|2020-03-05,2020.17486338798,2920,658991.869518966,727525.586831813
hCoV-19/Belgium/BG-030551/2020|EPI_ISL_418806|2020-03-05|Europe,2020.17486338798,1650,645535.839826568,661849.802625955
hCoV-19/Belgium/FM-030592/2020|EPI_ISL_420348|2020-03-05|Europe,2020.17486338798,7021,628274.842073467,627769.056706198
hCoV-19/Belgium/MT-0322411/2020|EPI_ISL_462265|2020-03-22,2020.22131147541,9120,637299.113004576,711037.574522625
hCoV-19/Belgium/DJ-0323409/2020|EPI_ISL_462263|2020-03-23,2020.22404371585,2020,651410.932844843,708129.544637333
hCoV-19/Belgium/DJS-0330307/2020|EPI_ISL_462161|2020-03-30,2020.24316939891,2490,705001.866942068,706419.300160206
hCoV-19/Belgium/ULG-10185/2020|EPI_ISL_455973|2020-5-10|Europe,2020.35519125683,4000,733927.046972333,647433.260267098
hCoV-19/Belgium/UGent-68/2020|EPI_ISL_451179|2020-04-09|Europe,2020.27049180328,NA,NA,NA
hCoV-19/Belgium/ULG-9536/2020|EPI_ISL_447124|2020-03-21|Europe,2020.21857923497,4728,766085.394940716,655990.060314641
hCoV-19/Belgium/BM-03012/2020|EPI_ISL_415154|2020-03-01|Europe,2020.16393442623,1950,657112.999804185,670965.644804855
hCoV-19/Belgium/ULG-10118/2020|EPI_ISL_427366|2020-04-07|Europe,2020.2650273224,4020,739801.497224292,648811.540294047
hCoV-19/Belgium/HP-0319108/2020|EPI_ISL_420364|2020-03-19|Europe,2020.2131147541,1070,644328.020188154,669619.235918855
hCoV-19/Belgium/BDW-030694/2020|EPI_ISL_420350|2020-03-06|Europe,2020.17759562842,8940,559315.875810636,665930.63347417
hCoV-19/Belgium/MC-030689/2020|EPI_ISL_420345|2020-03-06|Europe,2020.17759562842,5660,661069.869622083,584421.232261137
hCoV-19/Belgium/HI-0507421/2020|EPI_ISL_462275|2020-05-07,2020.34699453552,2280,679134.917114781,707636.074438853
hCoV-19/Belgium/ULG-10177/2020|EPI_ISL_455965|2020-5-9|Europe,2020.35245901639,4761,792502.56471965,628375.881375083
hCoV-19/Belgium/ULG-10178/2020|EPI_ISL_455966|2020-5-9|Europe,2020.35245901639,4761,788388.092567257,626658.84163499
hCoV-19/Belgium/Rega-0319265/2020|EPI_ISL_458235|2020-03-19|Europe,2020.2131147541,3800,705856.31835967,663517.154269051
hCoV-19/Belgium/KKN-0319184/2020|EPI_ISL_420366|2020-03-19|Europe,2020.2131147541,1160,657245.177173991,665090.128683236
hCoV-19/Belgium/ULG-9535/2020|EPI_ISL_447123|2020-03-21|Europe,2020.21857923497,4837,764063.911745241,644440.998482575
hCoV-19/Belgium/UGent-25/2020|EPI_ISL_425064|2020-03-25|Europe,2020.22950819672,NA,NA,NA
hCoV-19/Belgium/DEJ-0403381/2020|EPI_ISL_462235|2020-04-03,2020.25409836066,6030,651718.174418905,620978.779089149
hCoV-19/Belgium/ULG-0532/2020|EPI_ISL_447132|2020-03-24|Europe,2020.22677595628,4830,760766.720526463,645506.874758134
hCoV-19/Belgium/Rega-0329223/2020|EPI_ISL_458193|2020-03-29|Europe,2020.24043715847,7080,614566.2736534,619985.116568005
hCoV-19/Belgium/BCM-0324160/2020|EPI_ISL_420417|2020-03-24|Europe,2020.22677595628,7330,610738.313739381,626855.407875056
hCoV-19/Belgium/ULG-8715/2020|EPI_ISL_418643|2020-03-19|Europe,2020.2131147541,4633,748033.396650756,647789.471518446
hCoV-19/Belgium/Rega-0329224/2020|EPI_ISL_458194|2020-03-29|Europe,2020.24043715847,9149,NA,NA
hCoV-19/Belgium/ULG-10138/2020|EPI_ISL_427383|2020-04-08,2020.26775956284,4121,726303.143267771,638751.491626555
hCoV-19/Belgium/ULG-10139/2020|EPI_ISL_427384|2020-04-08|Europe,2020.26775956284,4821,756683.21180853,647225.183108953
hCoV-19/Belgium/ULG-10125/2020|EPI_ISL_427390|2020-04-07|Europe,2020.2650273224,4623,744033.413240361,643713.069664477
hCoV-19/Belgium/ULG-10004/2020|EPI_ISL_421184|2020-03-31|Europe,2020.24590163934,4840,763561.694936342,651745.926360375
hCoV-19/Belgium/ULG-8578/2020|EPI_ISL_418638|2020-03-19|Europe,2020.2131147541,4053,737413.799269093,643032.149774
hCoV-19/Belgium/ULG-10041/2020|EPI_ISL_427347|2020-03-31|Europe,2020.24590163934,4102,733446.86342689,642634.738812246
hCoV-19/Belgium/DV-0327353/2020|EPI_ISL_462207|2020-03-27,2020.2349726776,4520,712792.451955993,636761.744918768
hCoV-19/Belgium/ULG-10183/2020|EPI_ISL_455971|2020-5-9|Europe,2020.35245901639,4030,737438.170163197,645880.390551802
hCoV-19/Belgium/ULG-10121/2020|EPI_ISL_427369|2020-04-07|Europe,2020.2650273224,4920,741990.664302101,622284.957991487
hCoV-19/Belgium/ULG-3162/2020|EPI_ISL_417005|2020-03-05,2020.17486338798,4120,724917.661328785,639359.483242014
hCoV-19/Belgium/ULG-10065/2020|EPI_ISL_424635|2020-04-03,2020.25409836066,4170,733792.527973504,629068.310632293
hCoV-19/Belgium/ULG-8808/2020|EPI_ISL_418644|2020-03-19|Europe,2020.2131147541,4621,743068.248258773,647962.564806274
hCoV-19/Belgium/ULG-3163/2020|EPI_ISL_417006|2020-03-05|Europe,2020.17486338798,4650,754606.706542894,647871.05411848
hCoV-19/Belgium/BGM-030444/2020|EPI_ISL_420442|2020-03-04|Europe,2020.17213114754,3210,684691.393529345,674513.423806937
hCoV-19/Belgium/GOF-030578/2020|EPI_ISL_420334|2020-03-05|Europe,2020.17486338798,4257,707379.098660673,656922.399447878
hCoV-19/Belgium/GS-030549/2020|EPI_ISL_418798|2020-03-05|Europe,2020.17486338798,4650,753704.063274774,647083.040686005
hCoV-19/Belgium/ULG-9641/2020|EPI_ISL_418652|2020-03-22|Europe,2020.22131147541,unknown,NA,NA
hCoV-19/Belgium/BA-0330335/2020|EPI_ISL_462189|2020-03-30,2020.24316939891,5020,678923.649450113,630426.858164477
hCoV-19/Belgium/ULG-7821/2020|EPI_ISL_424628|2020-03-17|Europe,2020.20765027322,5300,704749.023941823,629483.10767109
hCoV-19/Belgium/WVM-0317325/2020|EPI_ISL_462179|2020-03-17,2020.20765027322,4020,740609.690246221,650855.832358265
hCoV-19/Belgium/Rega-0329244/2020|EPI_ISL_458214|2020-03-29|Europe,2020.24043715847,5100,683946.723166627,624721.770823392
hCoV-19/Belgium/PBT-0330365/2020|EPI_ISL_462219|2020-03-30,2020.24316939891,4257,709987.752940591,657035.149515171
hCoV-19/Belgium/ULG-10079/2020|EPI_ISL_424639|2020-04-03|Europe,2020.25409836066,4102,733301.629775184,642798.941852777
hCoV-19/Belgium/VLG-0325162/2020|EPI_ISL_420419|2020-03-25|Europe,2020.22950819672,3020,671042.564448627,678252.852153321
hCoV-19/Belgium/CGP-0325334/2020|EPI_ISL_462188|2020-03-25,2020.22950819672,9820,607271.235928906,685170.818502622
hCoV-19/Belgium/ITM_C447/2020|EPI_ISL_434385|2020-04-11,2020.27595628415,NA,NA,NA
hCoV-19/Belgium/IMJ-0401373/2020|EPI_ISL_462227|2020-04-01,2020.24863387978,2880,638465.563328757,696033.007426353
hCoV-19/Belgium/ULG-10016/2020|EPI_ISL_421194|2020-03-30|Europe,2020.24316939891,4900,757661.937591654,632467.432398683
hCoV-19/Belgium/ULG-6939/2020|EPI_ISL_417020|2020-03-15|Europe,2020.20218579235,4052,740044.187241049,640054.954399577
hCoV-19/Belgium/ULG-9572/2020|EPI_ISL_418646|2020-03-21|Europe,2020.21857923497,4102,733051.752307418,641839.328909205
hCoV-19/Belgium/ULG-10153/2020|EPI_ISL_447149|2020-04-18|Europe,2020.29508196721,4163,729141.460589888,629220.216033667
hCoV-19/Belgium/ULG-8541/2020|EPI_ISL_418636|2020-03-19|Europe,2020.2131147541,4000,732731.709631364,652143.844887886
hCoV-19/Belgium/ULG-9751/2020|EPI_ISL_418666|2020-03-22|Europe,2020.22131147541,4100,731405.318559448,645595.126322257
hCoV-19/Belgium/ULG-10036/2020|EPI_ISL_427344|2020-03-30|Europe,2020.24316939891,4342,726538.84183942,652630.338188346
hCoV-19/Belgium/ULG-10078/2020|EPI_ISL_424637|2020-04-03|Europe,2020.25409836066,4340,725043.504059595,656936.52387799
hCoV-19/Belgium/ULG-10001/2020|EPI_ISL_421182|2020-03-30|Europe,2020.24316939891,5300,695496.107037481,628577.798367287
hCoV-19/Belgium/BA-02291/2020|EPI_ISL_415159|2020-02-29|Europe,2020.16120218579,3000,673150.898347533,675145.751336882
hCoV-19/Belgium/DBOM-030566/2020|EPI_ISL_420322|2020-03-05|Europe,2020.17486338798,1050,651053.553820476,666654.530680034
hCoV-19/Belgium/BA-0326323/2020|EPI_ISL_462177|2020-03-26,2020.23224043716,6200,662548.652639354,617895.120952968
hCoV-19/Belgium/BM-0327320/2020|EPI_ISL_462174|2020-03-27,2020.2349726776,6061,658364.088003937,620864.117122837
hCoV-19/Belgium/ULG-6649/2020|EPI_ISL_418631|2020-03-14|Europe,2020.19945355191,6042,654511.56093495,623819.775656325
hCoV-19/Belgium/ULG-10017/2020|EPI_ISL_421195|2020-03-30|Europe,2020.24316939891,4280,701844.150766952,655070.601375823
hCoV-19/Belgium/ITM_C068/2020|EPI_ISL_450726|2020-03-26|Europe,2020.23224043716,NA,NA,NA
hCoV-19/Belgium/SC-0331378/2020|EPI_ISL_462232|2020-03-31,2020.24590163934,2180,653866.824286837,718308.465308058
hCoV-19/Belgium/ITM_C298/2020|EPI_ISL_434380|2020-04-04|Europe,2020.25683060109,NA,NA,NA
hCoV-19/Belgium/ITM_C211/2020|EPI_ISL_434368|2020-03-31|Europe,2020.24590163934,NA,NA,NA
hCoV-19/Belgium/LT-030956/2020|EPI_ISL_418985|2020-03-09|Europe,2020.18579234973,7890,603314.019748336,655448.378817965
hCoV-19/Belgium/NJC-0324126/2020|EPI_ISL_420383|2020-03-24|Europe,2020.22677595628,7830,627905.139330652,650595.203176267
hCoV-19/Belgium/VM-0325171/2020|EPI_ISL_420428|2020-03-25|Europe,2020.22950819672,3370,685806.072788257,672237.206252723
hCoV-19/Belgium/CF-0324119/2020|EPI_ISL_420376|2020-03-24|Europe,2020.22677595628,7060,627093.998248415,642869.616480675
hCoV-19/Belgium/Rega-0329218/2020|EPI_ISL_458188|2020-03-29|Europe,2020.24043715847,7941,611800.553446399,644363.391907129
hCoV-19/Belgium/20A44/2020|EPI_ISL_452149|2020-04-09|Europe,2020.27049180328,NA,NA,NA
hCoV-19/Belgium/ITM_C406/2020|EPI_ISL_434386|2020-04-09|Europe,2020.27049180328,NA,NA,NA
hCoV-19/Belgium/ITM_C376/2020|EPI_ISL_450736|2020-04-08|Europe,2020.26775956284,NA,NA,NA
hCoV-19/Belgium/ITM_C347/2020|EPI_ISL_434382|2020-04-07|Europe,2020.2650273224,NA,NA,NA
hCoV-19/Belgium/ITM_C456/2020|EPI_ISL_434378|2020-04-13|Europe,2020.28142076503,NA,NA,NA
hCoV-19/Belgium/UGent-67/2020|EPI_ISL_451178|2020-04-09|Europe,2020.27049180328,NA,NA,NA
hCoV-19/Belgium/Rega-0331263/2020|EPI_ISL_458233|2020-03-31|Europe,2020.24590163934,2230,687378.918469941,696081.966486951
hCoV-19/Belgium/ITM_C030/2020|EPI_ISL_434376|2020-03-25|Europe,2020.22950819672,NA,NA,NA
hCoV-19/Belgium/RR-0326315/2020|EPI_ISL_462169|2020-03-26,2020.23224043716,3090,660005.955231311,663321.211208046
hCoV-19/Belgium/Rega-0328207/2020|EPI_ISL_458177|2020-03-28|Europe,2020.23770491803,1160,655668.897208786,665523.345160389
hCoV-19/Belgium/Rega-0329246/2020|EPI_ISL_458216|2020-03-29|Europe,2020.24043715847,1480,634633.223206114,653984.639230086
hCoV-19/Belgium/Rega-0329243/2020|EPI_ISL_458213|2020-03-29|Europe,2020.24043715847,7700,569189.398428883,657818.730996068
hCoV-19/Belgium/DJMG-0325156/2020|EPI_ISL_420413|2020-03-25|Europe,2020.22950819672,7700,567513.612151934,659397.324572621
hCoV-19/Belgium/ULG-10150/2020|EPI_ISL_447147|2020-04-18|Europe,2020.29508196721,4141,743722.378798195,637471.03004845
hCoV-19/Belgium/REGA-0312401/2020|EPI_ISL_462255|2020-03-12,2020.19398907104,3570,717317.16833858,673521.815621517
hCoV-19/Belgium/ITM_C340/2020|EPI_ISL_434367|2020-04-06|Europe,2020.26229508197,NA,NA,NA
hCoV-19/Belgium/ITM_C159/2020|EPI_ISL_434375|2020-03-29|Europe,2020.24043715847,NA,NA,NA
hCoV-19/Belgium/ITM_C147/2020|EPI_ISL_434373|2020-03-28|Europe,2020.23770491803,NA,NA,NA
hCoV-19/Belgium/Rega-0328204/2020|EPI_ISL_458174|2020-03-28|Europe,2020.23770491803,1150,656951.738869058,667732.410714826
hCoV-19/Belgium/Rega-0328196/2020|EPI_ISL_458166|2020-03-28|Europe,2020.23770491803,7021,627462.918319637,625780.522958445
hCoV-19/Belgium/Rega-0327214/2020|EPI_ISL_458184|2020-03-27|Europe,2020.2349726776,7300,609597.090318482,623021.171336119
